{
  "id": 101736565,
  "type": "Feature",
  "properties": {
    "edtf:cessation":"2025-09-03",
    "edtf:inception":"uuuu",
    "geom:area":0.009473,
    "geom:area_square_m":79354685.076645,
    "geom:bbox":"-70.197392,47.294878,-69.938094,47.426313",
    "geom:latitude":47.356877,
    "geom:longitude":-70.051297,
    "iso:country":"CA",
    "lbl:latitude":47.327361,
    "lbl:longitude":-70.027769,
    "lbl:max_zoom":18.0,
    "lbl:min_zoom":13.5,
    "mps:latitude":47.327361,
    "mps:longitude":-70.027769,
    "mz:hierarchy_label":1,
    "mz:is_current":1,
    "mz:min_zoom":12.0,
    "name:bre_x_preferred":[
        "Sainte-Anne-de-la-Pocati\u00e8re"
    ],
    "name:ceb_x_preferred":[
        "Sainte-Anne-de-la-Pocati\u00e8re"
    ],
    "name:cos_x_preferred":[
        "Sainte-Anne-de-la-Pocati\u00e8re"
    ],
    "name:dan_x_preferred":[
        "Sainte-Anne-de-la-Pocati\u00e8re"
    ],
    "name:deu_x_preferred":[
        "Sainte-Anne-de-la-Pocati\u00e8re"
    ],
    "name:ell_x_preferred":[
        "\u03a3\u03b1\u03b9\u03bd\u03c4-\u0391\u03bd-\u03bd\u03c4\u03b5-\u03bb\u03b1-\u03a0\u03bf\u03ba\u03b1\u03c4\u03b9\u03ad\u03c1"
    ],
    "name:eng_x_preferred":[
        "Sainte-Anne-de-la-Pocati\u00e8re"
    ],
    "name:epo_x_preferred":[
        "Sainte-Anne-de-la-Pocati\u00e8re"
    ],
    "name:eus_x_preferred":[
        "Sainte-Anne-de-la-Pocati\u00e8re"
    ],
    "name:fas_x_preferred":[
        "\u0633\u0646\u062a-\u0622\u0646-\u062f\u0648-\u0644\u0627-\u067e\u0648\u06a9\u0627\u062a\u06cc\u06cc\u0631\u060c \u06a9\u0628\u06a9"
    ],
    "name:fas_x_variant":[
        "\u0633\u0646\u062a-\u0622\u0646-\u062f\u0648-\u0644\u0627-\u067e\u0648\u06a9\u0627\u062a\u06cc\u06cc\u0631"
    ],
    "name:fra_x_preferred":[
        "Sainte-Anne-de-la-Pocati\u00e8re"
    ],
    "name:ind_x_preferred":[
        "Sainte-Anne-de-la-Pocati\u00e8re"
    ],
    "name:ita_x_preferred":[
        "Sainte-Anne-de-la-Pocati\u00e8re"
    ],
    "name:nds_x_preferred":[
        "Sainte-Anne-de-la-Pocati\u00e8re"
    ],
    "name:nld_x_preferred":[
        "Sainte-Anne-de-la-Pocati\u00e8re"
    ],
    "name:por_x_preferred":[
        "Sainte-Anne-de-la-Pocati\u00e8re"
    ],
    "name:ron_x_preferred":[
        "Sainte-Anne-de-la-Pocati\u00e8re"
    ],
    "name:spa_x_preferred":[
        "Sainte-Anne-de-la-Pocati\u00e8re"
    ],
    "name:sqi_x_preferred":[
        "Sainte-Anne-de-la-Pocati\u00e8re"
    ],
    "name:swe_x_preferred":[
        "Sainte-Anne-de-la-Pocati\u00e8re"
    ],
    "name:tah_x_preferred":[
        "Sainte-Anne-de-la-Pocati\u00e8re"
    ],
    "name:urd_x_preferred":[
        "\u0633\u06cc\u0646-\u0627\u06cc\u0646-\u062f\u06d2-\u0644\u0627-\u067e\u0648\u06a9\u062a\u06cc\u06cc\u0631\u06d2\u060c \u06a9\u06cc\u0648\u0628\u06a9"
    ],
    "name:urd_x_variant":[
        "\u0633\u06cc\u0646-\u0627\u06cc\u0646-\u062f\u06d2-\u0644\u0627-\u067e\u0648\u06a9\u062a\u06cc\u06cc\u0631\u06d2"
    ],
    "qs:a0":"Canada",
    "qs:a1":"*Quebec",
    "qs:a1_lc":"QC",
    "qs:a1r":"*",
    "qs:adm0":"Canada",
    "qs:id":0,
    "qs:la_lc":"*",
    "qs:level":"locality",
    "qs:loc":"Sainte-Anne-de-la-Pocati\u00e8re",
    "qs:loc_alt":"Sainte-Anne-de-la-Pocati\u00e8re",
    "qs:loc_lc":"0aba9a17be4d11d892e2080020a0f4c9",
    "qs:pop":0,
    "qs:source":"NCanada Census",
    "qs:type":"Paroisse",
    "src:geom":"quattroshapes",
    "src:geom_alt":[],
    "src:lbl_centroid":"mapshaper",
    "wd:wordcount":85,
    "wof:belongsto":[
        102191575,
        85633041,
        890456817,
        136251273
    ],
    "wof:breaches":[
        101738899
    ],
    "wof:concordances":{
        "gp:id":1441,
        "statcan:nid":"0aba9a17be4d11d892e2080020a0f4c9",
        "wd:id":"Q2075997"
    },
    "wof:concordances_official":"statcan:nid",
    "wof:country":"CA",
    "wof:geomhash":"68aa74a683f3fc8445937e2fe32fb420",
    "wof:hierarchy":[
        {
            "continent_id":102191575,
            "country_id":85633041,
            "county_id":890456817,
            "locality_id":101736565,
            "region_id":136251273
        }
    ],
    "wof:id":101736565,
    "wof:lastmodified":1788900984,
    "wof:name":"Sainte-Anne-de-la-Pocati\u00e8re",
    "wof:parent_id":890456817,
    "wof:placetype":"locality",
    "wof:population_rank":0,
    "wof:repo":"whosonfirst-data-admin-ca",
    "wof:superseded_by":[2048281069],
    "wof:supersedes":[],
    "wof:tags":[]
},
  "bbox": [
    -70.197392,
    47.294878,
    -69.938094,
    47.426313
],
  "geometry": {"coordinates":[[[-69.990927,47.393093],[-69.990664,47.392916],[-69.988429,47.39144],[-69.988124,47.391234],[-69.979922,47.385728],[-69.977468,47.384046],[-69.96902,47.378255],[-69.968125,47.378845],[-69.967243,47.379426],[-69.967028,47.379588],[-69.96675,47.379798],[-69.96536999999999,47.380505],[-69.961095,47.382697],[-69.96091300000001,47.382539],[-69.96088899999999,47.38233],[-69.960843,47.382035],[-69.960837,47.381838],[-69.960882,47.381666],[-69.960832,47.381414],[-69.960683,47.381206],[-69.96045700000001,47.381051],[-69.96016,47.38092],[-69.959731,47.380819],[-69.95930300000001,47.380742],[-69.959023,47.380706],[-69.95855899999999,47.38067],[-69.95819,47.380676],[-69.957703,47.380837],[-69.957328,47.38098],[-69.957038,47.381028],[-69.956756,47.380998],[-69.956417,47.380926],[-69.956138,47.380885],[-69.955822,47.380902],[-69.955406,47.380962],[-69.954995,47.381087],[-69.95446,47.381283],[-69.95407299999999,47.381462],[-69.953782,47.38161],[-69.95356700000001,47.381741],[-69.953335,47.381848],[-69.95320100000001,47.381841],[-69.95299,47.381771],[-69.952758,47.38161],[-69.95242500000001,47.381337],[-69.952062,47.380956],[-69.951812,47.380623],[-69.951562,47.380349],[-69.951324,47.380093],[-69.951104,47.379879],[-69.950819,47.379576],[-69.95052699999999,47.379329],[-69.950247,47.379204],[-69.95002700000001,47.379207],[-69.94966100000001,47.379248],[-69.94932799999999,47.379314],[-69.948986,47.379317],[-69.948716,47.379282],[-69.94832,47.379145],[-69.94787599999999,47.378951],[-69.947394,47.378775],[-69.947017,47.378653],[-69.94684700000001,47.378531],[-69.94668900000001,47.378476],[-69.946303,47.378552],[-69.946091,47.378552],[-69.94592799999999,47.378478],[-69.945886,47.37835],[-69.945891,47.378291],[-69.945888,47.378289],[-69.945931,47.378011],[-69.945984,47.377877],[-69.946068,47.377746],[-69.946175,47.377627],[-69.946358,47.37748],[-69.94651399999999,47.377308],[-69.942823,47.374999],[-69.94273,47.37499],[-69.93809400000001,47.372149],[-69.938112,47.372143],[-69.938112,47.372134],[-69.938205,47.372107],[-69.93835199999999,47.372],[-69.938365,47.372],[-69.939915,47.370766],[-69.9402,47.370537],[-69.94426900000001,47.372856],[-69.944176,47.372571],[-69.944045,47.372255],[-69.943956,47.372071],[-69.943849,47.371932],[-69.943718,47.371738],[-69.943629,47.371541],[-69.943575,47.371363],[-69.943551,47.371143],[-69.94359300000001,47.37097],[-69.943682,47.370774],[-69.943843,47.370542],[-69.944057,47.370173],[-69.9442,47.369905],[-69.94430699999999,47.369643],[-69.944372,47.369405],[-69.944349,47.369048],[-69.944289,47.368745],[-69.94433100000001,47.368412],[-69.94441999999999,47.368186],[-69.94454500000001,47.367834],[-69.94463399999999,47.367501],[-69.944599,47.367204],[-69.94452099999999,47.366912],[-69.944408,47.366585],[-69.944301,47.366192],[-69.944236,47.365818],[-69.94417300000001,47.365568],[-69.944146,47.365269],[-69.94410499999999,47.364996],[-69.944039,47.364663],[-69.943955,47.364307],[-69.943944,47.364044],[-69.94399199999999,47.363729],[-69.94399199999999,47.363444],[-69.94400899999999,47.363054],[-69.944017,47.362778],[-69.94411700000001,47.362396],[-69.944298,47.362084],[-69.947925,47.364499],[-69.951909,47.367181],[-69.954262,47.368784],[-69.954369,47.368668],[-69.954785,47.368202],[-69.956339,47.366446],[-69.958669,47.363822],[-69.959621,47.36272],[-69.960678,47.361582],[-69.96328699999999,47.358932],[-69.96351,47.359095],[-69.964483,47.358479],[-69.964696,47.358327],[-69.962947,47.357167],[-69.96285399999999,47.354576],[-69.962772,47.352246],[-69.96381700000001,47.349678],[-69.964927,47.347218],[-69.96584799999999,47.345172],[-69.966905,47.342748],[-69.96750900000001,47.341878],[-69.967871,47.341403],[-69.969167,47.34024],[-69.969741,47.339721],[-69.971479,47.33792],[-69.972869,47.336524],[-69.97495000000001,47.334887],[-69.97675099999999,47.333348],[-69.97721900000001,47.332891],[-69.977982,47.332058],[-69.980054,47.329819],[-69.981499,47.328233],[-69.983273,47.329464],[-69.985755,47.327281],[-69.98871800000001,47.324676],[-69.99141,47.322565],[-69.99185,47.322234],[-69.992132,47.32184],[-69.992358,47.321652],[-69.994544,47.319943],[-69.997276,47.317796],[-69.999995,47.315676],[-69.999995,47.315622],[-70.001248,47.314665],[-70.00254,47.313699],[-70.003327,47.312974],[-70.003833,47.312635],[-70.004419,47.312234],[-70.004499,47.312188],[-70.00593600000001,47.31124],[-70.00914299999999,47.309131],[-70.01273500000001,47.306799],[-70.016369,47.304268],[-70.01791299999999,47.303204],[-70.01863299999999,47.302596],[-70.019193,47.302076],[-70.019858,47.301584],[-70.021136,47.300636],[-70.021908,47.300082],[-70.022468,47.29958],[-70.023802,47.298317],[-70.02516199999999,47.297091],[-70.027584,47.294878],[-70.031189,47.297331],[-70.035028,47.299866],[-70.039906,47.303106],[-70.044285,47.306038],[-70.04861099999999,47.308907],[-70.051057,47.31058],[-70.05346400000001,47.312173],[-70.058358,47.31543],[-70.062738,47.318344],[-70.06750099999999,47.321501],[-70.071124,47.323902],[-70.07176200000001,47.323467],[-70.071828,47.323424],[-70.071861,47.323403],[-70.071894,47.323382],[-70.07195900000001,47.323339],[-70.072123,47.323234],[-70.07289900000001,47.322652],[-70.073008,47.322726],[-70.080781,47.327853],[-70.07919200000001,47.3288],[-70.078971,47.328931],[-70.07922600000001,47.329107],[-70.08004,47.32967],[-70.091266,47.337424],[-70.092152,47.338035],[-70.092339,47.338164],[-70.093636,47.339116],[-70.09542500000001,47.340374],[-70.096266,47.340965],[-70.096428,47.341079],[-70.19739199999999,47.411944],[-70.180592,47.426313],[-70.077442,47.357956],[-70.07741,47.35797],[-70.077303,47.358051],[-70.07729999999999,47.358052],[-70.07596100000001,47.357134],[-70.075047,47.356506],[-70.072119,47.354496],[-70.070646,47.35354],[-70.06981,47.353025],[-70.06971,47.35297],[-70.069669,47.352948],[-70.06968000000001,47.352827],[-70.06962300000001,47.352788],[-70.06918,47.352481],[-70.068854,47.352256],[-70.061245,47.347037],[-70.055538,47.343209],[-70.055266,47.343043],[-70.05359799999999,47.341908],[-70.053307,47.342081],[-70.05268,47.341655],[-70.05262500000001,47.341617],[-70.050624,47.342815],[-70.049555,47.343478],[-70.048681,47.344043],[-70.047651,47.344722],[-70.045912,47.345849],[-70.04433400000001,47.34687],[-70.040345,47.349435],[-70.03961099999999,47.349912],[-70.03929599999999,47.350136],[-70.03878899999999,47.350591],[-70.038538,47.35077],[-70.038049,47.35121],[-70.03752299999999,47.351609],[-70.03671,47.352254],[-70.036148,47.352712],[-70.03555,47.35317],[-70.035133,47.353534],[-70.03452299999999,47.354026],[-70.033675,47.35473],[-70.033473,47.354933],[-70.033174,47.355145],[-70.032971,47.35534],[-70.032673,47.355586],[-70.032398,47.355814],[-70.032123,47.356035],[-70.03178800000001,47.356298],[-70.03157400000001,47.356484],[-70.031334,47.356671],[-70.030986,47.356909],[-70.030567,47.357224],[-70.030089,47.357589],[-70.029622,47.357962],[-70.028809,47.358598],[-70.02833099999999,47.35898],[-70.028306,47.359],[-70.028845,47.359397],[-70.028351,47.359691],[-70.027888,47.35997],[-70.02707700000001,47.360464],[-70.02595599999999,47.361142],[-70.025188,47.36163],[-70.024568,47.361997],[-70.024159,47.362247],[-70.024029,47.362346],[-70.02355,47.36274],[-70.023071,47.363138],[-70.023122,47.363173],[-70.02343399999999,47.363387],[-70.02351899999999,47.363446],[-70.023515,47.36345],[-70.023149,47.36378],[-70.022665,47.364217],[-70.022209,47.364635],[-70.02192599999999,47.364895],[-70.021647,47.365151],[-70.021621,47.365174],[-70.021237,47.365553],[-70.021061,47.365726],[-70.02086799999999,47.365925],[-70.02077800000001,47.366037],[-70.020707,47.36615],[-70.020652,47.366253],[-70.02064300000001,47.366269],[-70.020608,47.366346],[-70.020528,47.366445],[-70.02043399999999,47.366535],[-70.020341,47.366606],[-70.020248,47.366678],[-70.020115,47.366749],[-70.019915,47.366847],[-70.019729,47.366945],[-70.01959600000001,47.367026],[-70.019423,47.367115],[-70.019277,47.367186],[-70.01917,47.36724],[-70.01901100000001,47.367284],[-70.018878,47.367329],[-70.018772,47.367373],[-70.01867900000001,47.367427],[-70.01853199999999,47.367534],[-70.018399,47.367633],[-70.018252,47.367731],[-70.018159,47.36782],[-70.018052,47.367928],[-70.01795799999999,47.368053],[-70.017824,47.368233],[-70.01767700000001,47.368394],[-70.01756899999999,47.368556],[-70.017475,47.368681],[-70.01735499999999,47.368789],[-70.017235,47.368905],[-70.017155,47.368968],[-70.01703500000001,47.369039],[-70.01692799999999,47.369129],[-70.016835,47.369227],[-70.016688,47.369352],[-70.016595,47.369433],[-70.016541,47.369514],[-70.016434,47.369648],[-70.01634,47.369747],[-70.016273,47.369845],[-70.01621900000001,47.370007],[-70.016165,47.370115],[-70.016137,47.370196],[-70.01610700000001,47.370327],[-70.01610700000001,47.370335],[-70.016131,47.370428],[-70.01615200000001,47.370465],[-70.01618999999999,47.370532],[-70.01625799999999,47.370624],[-70.01632499999999,47.370746],[-70.01635400000001,47.370816],[-70.016358,47.3709],[-70.016351,47.370944],[-70.01633,47.370976],[-70.016284,47.370998],[-70.016203,47.37103],[-70.01615200000001,47.371048],[-70.016104,47.371058],[-70.01606200000001,47.371056],[-70.01540300000001,47.371755],[-70.01528999999999,47.371815],[-70.01499699999999,47.372088],[-70.014594,47.372555],[-70.014257,47.372947],[-70.01407500000001,47.373191],[-70.01392,47.373425],[-70.01372000000001,47.373683],[-70.012581,47.375224],[-70.01158700000001,47.378091],[-70.01145,47.378548],[-70.01117499999999,47.37938],[-70.010941,47.380063],[-70.010876,47.380245],[-70.010822,47.380395],[-70.01079,47.380483],[-70.010372,47.381453],[-70.01026,47.381801],[-70.010238,47.381819],[-70.010237,47.38186],[-70.010228,47.381894],[-70.01013500000001,47.382031],[-70.01003300000001,47.382184],[-70.010042,47.382368],[-70.009708,47.383287],[-70.009727,47.383424],[-70.00973500000001,47.383492],[-70.009704,47.38371],[-70.009714,47.384025],[-70.009693,47.384371],[-70.00968,47.384767],[-70.00969000000001,47.385156],[-70.009719,47.385964],[-70.009773,47.387135],[-70.009776,47.387393],[-70.009788,47.388214],[-70.00984699999999,47.389273],[-70.009851,47.389381],[-70.009902,47.390562],[-70.00949900000001,47.391043],[-70.009187,47.391413],[-70.00839499999999,47.392351],[-70.007915,47.39292],[-70.00753899999999,47.393357],[-70.007057,47.393918],[-70.006935,47.394063],[-70.00633500000001,47.394772],[-70.005736,47.395482],[-70.00513100000001,47.396198],[-70.004561,47.396873],[-70.004079,47.397444],[-70.003952,47.397597],[-70.00349,47.398148],[-70.00341299999999,47.398238],[-70.002921,47.398809],[-70.001666,47.400249],[-69.99533,47.396004],[-69.991989,47.393788],[-69.991373,47.39339],[-69.99118,47.393263],[-69.990927,47.393093]]],"type":"Polygon"}
}