{
    "id": 2048281069,
    "type": "Feature",
    "properties": {
        "edtf:cessation": "uuuu",
        "edtf:inception": "2025-09-03",
        "geom:area": 0.023935,
        "geom:area_square_m": 200609683.253,
        "geom:bbox": "-70.197392,47.225058,-69.831921,47.426313",
        "geom:latitude": 47.378387,
        "geom:longitude": -70.03588,
        "iso:country": "CA",
        "lbl:latitude": 47.379077,
        "lbl:longitude": -70.032724,
        "lbl:max_zoom": 15.0,
        "lbl:min_zoom": 11.5,
        "mps:latitude": 47.379077,
        "mps:longitude": -70.032724,
        "mz:hierarchy_label": 1,
        "mz:is_current": 0,
        "mz:min_zoom": 11.0,
        "name:ara_x_preferred": [
            "\u0644\u0627 \u0628\u0648\u0643\u0627\u0631\u064a\u0647"
        ],
        "name:atj_x_preferred": [
            "La Pocati\u00e8re"
        ],
        "name:ceb_x_preferred": [
            "La Pocati\u00e8re"
        ],
        "name:deu_x_preferred": [
            "La Pocati\u00e8re"
        ],
        "name:diq_x_preferred": [
            "La Pocati\u00e8re"
        ],
        "name:ell_x_preferred": [
            "\u039b\u03b1 \u03a0\u03bf\u03ba\u03b1\u03c4\u03b9\u03ad\u03c1"
        ],
        "name:eng_x_preferred": [
            "La Pocati\u00e8re"
        ],
        "name:eng_x_variant": [
            "Ste. Anne de la Pocati\u00e8re"
        ],
        "name:est_x_preferred": [
            "La Pocati\u00e8re"
        ],
        "name:eus_x_preferred": [
            "La Pocati\u00e8re"
        ],
        "name:fas_x_preferred": [
            "\u0644\u0627 \u067e\u0648\u06a9\u0627\u062a\u06cc\u06cc\u0631\u060c \u06a9\u0628\u06a9"
        ],
        "name:fas_x_variant": [
            "\u0644\u0627 \u067e\u0648\u06a9\u0627\u062a\u06cc\u06cc\u0631"
        ],
        "name:fra_x_preferred": [
            "La Pocati\u00e8re"
        ],
        "name:hak_x_preferred": [
            "La Pocati\u00e8re"
        ],
        "name:hbs_x_preferred": [
            "La Pocati\u00e8re"
        ],
        "name:ita_x_preferred": [
            "La Pocati\u00e8re"
        ],
        "name:jpn_x_preferred": [
            "\u30e9\u30fb\u30dd\u30ab\u30c6\u30a3\u30a8\u30fc\u30eb"
        ],
        "name:nld_x_preferred": [
            "La Pocati\u00e8re"
        ],
        "name:nno_x_preferred": [
            "La Pocati\u00e8re"
        ],
        "name:nob_x_preferred": [
            "La Pocati\u00e8re"
        ],
        "name:pol_x_preferred": [
            "La Pocati\u00e8re"
        ],
        "name:por_x_preferred": [
            "La Pocati\u00e8re"
        ],
        "name:rus_x_preferred": [
            "\u041b\u0430-\u041f\u043e\u043a\u0430\u0442\u044c\u0435\u0440"
        ],
        "name:spa_x_preferred": [
            "La Pocati\u00e8re"
        ],
        "name:srp_x_preferred": [
            "\u041b\u0430 \u041f\u043e\u043a\u0430\u0442\u0458\u0435\u0440"
        ],
        "name:swe_x_preferred": [
            "La Pocati\u00e8re"
        ],
        "name:vol_x_preferred": [
            "La Pocati\u00e8re"
        ],
        "name:zho_x_preferred": [
            "\u62c9\u6ce2\u5361\u6377\u723e"
        ],
        "qs:a0": "Canada",
        "qs:a1": "*Quebec",
        "qs:a1_lc": "QC",
        "qs:a1r": "*",
        "qs:adm0": "Canada",
        "qs:id": 0,
        "qs:la_lc": "*",
        "qs:level": "locality",
        "qs:loc": "La Pocati\u00e8re",
        "qs:loc_alt": "La Pocati\u00e8re",
        "qs:loc_lc": "f964896abe3111d892e2080020a0f4c9",
        "qs:pop": 0,
        "qs:source": "NCanada Census",
        "qs:type": "Ville",
        "src:geom": "quattroshapes",
        "src:lbl_centroid": "mapshaper",
        "wd:wordcount": 297,
        "wof:belongsto": [
            102191575,
            85633041,
            890456817,
            136251273
        ],
        "wof:breaches": [],
        "wof:concordances": {
            "wd:id": "Q136326854",
            "wk:page": "La Pocati\u00e8re"
        },
        "wof:concordances_official": "",
        "wof:country": "CA",
        "wof:geom_alt": [],
        "wof:geomhash": "0345f65d299852a1b9ab92bfdc8c17a6",
        "wof:hierarchy": [
            {
                "continent_id": 102191575,
                "country_id": 85633041,
                "county_id": 890456817,
                "locality_id": 2048281069,
                "region_id": 136251273
            }
        ],
        "wof:id": 2048281069,
        "wof:lastmodified": 1788900984,
        "wof:name": "La Pocati\u00e8re",
        "wof:parent_id": 890456817,
        "wof:placetype": "locality",
        "wof:population": 4575,
        "wof:population_rank": 4,
        "wof:repo": "whosonfirst-data-admin-ca",
        "wof:superseded_by": [],
        "wof:supersedes": [],
        "wof:tags": []
    },
    "bbox": [
        -70.197392,
        47.225058,
        -69.831921,
        47.426313
    ],
    "geometry": {
        "coordinates": [[[-70.027584,47.294878],[-70.031189,47.297331],[-70.035028,47.299866],[-70.039906,47.303106],[-70.044285,47.306038],[-70.048611,47.308907],[-70.051057,47.31058],[-70.053464,47.312173],[-70.058358,47.31543],[-70.062738,47.318344],[-70.067501,47.321501],[-70.071124,47.323902],[-70.071762,47.323467],[-70.071828,47.323424],[-70.071861,47.323403],[-70.071894,47.323382],[-70.071959,47.323339],[-70.072123,47.323234],[-70.072899,47.322652],[-70.073008,47.322726],[-70.080781,47.327853],[-70.079192,47.3288],[-70.078971,47.328931],[-70.079226,47.329107],[-70.08004,47.32967],[-70.091266,47.337424],[-70.092152,47.338035],[-70.092339,47.338164],[-70.093636,47.339116],[-70.095425,47.340374],[-70.096266,47.340965],[-70.096428,47.341079],[-70.197392,47.411944],[-70.180592,47.426313],[-70.077442,47.357956],[-70.07741,47.35797],[-70.077303,47.358051],[-70.0773,47.358052],[-70.076971,47.358202],[-70.076772,47.358283],[-70.076467,47.35839],[-70.076294,47.358515],[-70.076094,47.358613],[-70.075908,47.358711],[-70.075669,47.358863],[-70.07539,47.358943],[-70.074992,47.359086],[-70.074354,47.359317],[-70.073929,47.35946],[-70.07369,47.359612],[-70.073517,47.359746],[-70.073197,47.360015],[-70.072837,47.36031],[-70.072517,47.360606],[-70.072197,47.360892],[-70.072117,47.361009],[-70.072115,47.36118],[-70.072008,47.36127],[-70.071849,47.361323],[-70.071703,47.361385],[-70.071437,47.361555],[-70.071091,47.361797],[-70.070998,47.361859],[-70.070811,47.362021],[-70.070411,47.362361],[-70.070105,47.362567],[-70.069839,47.362746],[-70.069412,47.363086],[-70.06896,47.363363],[-70.068574,47.363577],[-70.068095,47.363918],[-70.067656,47.364159],[-70.067283,47.364436],[-70.066697,47.364821],[-70.066311,47.365125],[-70.065871,47.365393],[-70.065552,47.365644],[-70.065206,47.365832],[-70.064819,47.366136],[-70.064487,47.36636],[-70.064167,47.366556],[-70.063155,47.367236],[-70.06249,47.367656],[-70.061984,47.368014],[-70.061637,47.368256],[-70.061131,47.368632],[-70.060891,47.36882],[-70.060558,47.369115],[-70.060171,47.369483],[-70.059503,47.370164],[-70.058969,47.370638],[-70.058542,47.371024],[-70.057902,47.371633],[-70.057208,47.372242],[-70.056728,47.372645],[-70.056487,47.372977],[-70.056459,47.373156],[-70.056458,47.373264],[-70.056378,47.373354],[-70.056245,47.373398],[-70.056059,47.373425],[-70.05586,47.373523],[-70.0557,47.373639],[-70.055593,47.373729],[-70.05542,47.373908],[-70.055139,47.374258],[-70.054845,47.374571],[-70.054711,47.374742],[-70.054709,47.374922],[-70.054709,47.375003],[-70.054708,47.375066],[-70.054668,47.375155],[-70.054229,47.375406],[-70.053869,47.375656],[-70.053629,47.375817],[-70.053429,47.375969],[-70.053322,47.376104],[-70.053321,47.376284],[-70.053345,47.376482],[-70.053317,47.376697],[-70.053329,47.376868],[-70.053421,47.376959],[-70.053671,47.377077],[-70.053882,47.377221],[-70.054119,47.377411],[-70.054105,47.377483],[-70.053986,47.37751],[-70.053854,47.377437],[-70.053511,47.377247],[-70.053221,47.377093],[-70.053142,47.377084],[-70.053154,47.377165],[-70.05355,47.377391],[-70.053985,47.3776],[-70.054209,47.377744],[-70.054419,47.377988],[-70.054444,47.378123],[-70.054403,47.378258],[-70.054309,47.378401],[-70.054122,47.378572],[-70.053923,47.378706],[-70.05371,47.378822],[-70.053283,47.379153],[-70.052922,47.379628],[-70.052599,47.380185],[-70.052236,47.380804],[-70.051741,47.381423],[-70.051527,47.381701],[-70.051219,47.382069],[-70.051085,47.38223],[-70.050817,47.382634],[-70.050615,47.382966],[-70.050401,47.383226],[-70.050241,47.383369],[-70.050227,47.383504],[-70.050093,47.383692],[-70.049986,47.383737],[-70.0498,47.383826],[-70.049786,47.38397],[-70.049904,47.384087],[-70.049903,47.38415],[-70.049677,47.384293],[-70.049476,47.384491],[-70.04922,47.385056],[-70.049085,47.385362],[-70.048817,47.385747],[-70.048614,47.386187],[-70.048413,47.386483],[-70.048186,47.386716],[-70.047971,47.38703],[-70.047716,47.387479],[-70.047568,47.387721],[-70.047393,47.388027],[-70.047192,47.388305],[-70.047017,47.388673],[-70.046949,47.388825],[-70.046548,47.389292],[-70.046453,47.389516],[-70.046318,47.389812],[-70.046143,47.39018],[-70.045913,47.390764],[-70.045684,47.391132],[-70.045469,47.391527],[-70.045148,47.391931],[-70.044469,47.392342],[-70.044042,47.3927],[-70.043575,47.393067],[-70.043308,47.393228],[-70.043016,47.39328],[-70.042896,47.39337],[-70.042909,47.393487],[-70.042961,47.393541],[-70.043173,47.39356],[-70.04345,47.39366],[-70.04382,47.39385],[-70.043989,47.394139],[-70.044001,47.394346],[-70.043892,47.394732],[-70.043808,47.395182],[-70.043779,47.395487],[-70.043632,47.395604],[-70.043354,47.395603],[-70.043235,47.39562],[-70.043246,47.395791],[-70.043272,47.395854],[-70.043337,47.396007],[-70.043336,47.396169],[-70.043241,47.396421],[-70.043186,47.396681],[-70.042916,47.39722],[-70.042848,47.397391],[-70.042847,47.397589],[-70.042751,47.397975],[-70.042747,47.398434],[-70.04281,47.398758],[-70.042793,47.399208],[-70.042776,47.399675],[-70.042745,47.400134],[-70.04273,47.400359],[-70.042634,47.400763],[-70.042592,47.401006],[-70.04255,47.401303],[-70.042388,47.401653],[-70.0422,47.40194],[-70.042198,47.402075],[-70.042171,47.402183],[-70.042064,47.402263],[-70.042089,47.402443],[-70.042167,47.40265],[-70.042258,47.402876],[-70.042229,47.40319],[-70.042306,47.403398],[-70.042238,47.403685],[-70.042182,47.403991],[-70.042153,47.404278],[-70.042125,47.404467],[-70.042163,47.404629],[-70.042228,47.40481],[-70.042158,47.40525],[-70.042075,47.405672],[-70.042006,47.405951],[-70.041977,47.406203],[-70.042001,47.406482],[-70.041946,47.406697],[-70.041931,47.406895],[-70.041996,47.407066],[-70.042061,47.407238],[-70.042033,47.40739],[-70.041952,47.407606],[-70.041829,47.407983],[-70.041853,47.408262],[-70.041838,47.408514],[-70.041769,47.408766],[-70.041608,47.409062],[-70.04162,47.409224],[-70.041565,47.409395],[-70.041572,47.409405],[-70.040354,47.409409],[-70.039099,47.409426],[-70.037459,47.409446],[-70.035585,47.40947],[-70.033444,47.409484],[-70.032859,47.409488],[-70.032744,47.409488],[-70.031777,47.409494],[-70.031283,47.409555],[-70.031244,47.409559],[-70.028564,47.40997],[-70.027967,47.410048],[-70.02756,47.410114],[-70.027168,47.410173],[-70.026732,47.410238],[-70.026384,47.41029],[-70.026055,47.410338],[-70.025698,47.410393],[-70.025174,47.410475],[-70.024581,47.410565],[-70.024072,47.410633],[-70.023843,47.410672],[-70.02376,47.410691],[-70.02366,47.410705],[-70.023497,47.410726],[-70.023479,47.410732],[-70.023461,47.410739],[-70.023443,47.410745],[-70.023425,47.410751],[-70.023408,47.410757],[-70.02339,47.410763],[-70.023372,47.41077],[-70.023354,47.410776],[-70.023336,47.410782],[-70.023319,47.410788],[-70.023301,47.410795],[-70.023283,47.410801],[-70.023266,47.410807],[-70.023248,47.410814],[-70.02323,47.41082],[-70.023213,47.410827],[-70.023195,47.410833],[-70.023177,47.41084],[-70.02316,47.410846],[-70.023142,47.410853],[-70.023125,47.410859],[-70.023107,47.410866],[-70.02309,47.410872],[-70.023072,47.410879],[-70.023055,47.410886],[-70.023037,47.410892],[-70.02302,47.410899],[-70.023014,47.410901],[-70.023008,47.410904],[-70.023002,47.410906],[-70.022996,47.410908],[-70.022991,47.410911],[-70.022985,47.410913],[-70.022979,47.410915],[-70.022973,47.410918],[-70.022967,47.41092],[-70.022962,47.410923],[-70.022956,47.410925],[-70.02295,47.410928],[-70.022945,47.41093],[-70.022939,47.410933],[-70.022933,47.410936],[-70.022928,47.410938],[-70.022922,47.410941],[-70.022917,47.410943],[-70.022911,47.410946],[-70.022906,47.410949],[-70.0229,47.410951],[-70.022895,47.410954],[-70.022889,47.410957],[-70.022884,47.41096],[-70.022878,47.410962],[-70.022873,47.410965],[-70.022868,47.410968],[-70.022862,47.410971],[-70.022857,47.410974],[-70.022852,47.410977],[-70.022846,47.41098],[-70.022841,47.410983],[-70.022836,47.410985],[-70.022831,47.410988],[-70.022825,47.410991],[-70.02282,47.410994],[-70.022815,47.410997],[-70.02281,47.411],[-70.022805,47.411004],[-70.0228,47.411007],[-70.022795,47.41101],[-70.02279,47.411013],[-70.022785,47.411016],[-70.02278,47.411019],[-70.022775,47.411022],[-70.02277,47.411025],[-70.022765,47.411029],[-70.02276,47.411032],[-70.022756,47.411035],[-70.022751,47.411038],[-70.022746,47.411042],[-70.022741,47.411045],[-70.022737,47.411048],[-70.022732,47.411052],[-70.022727,47.411055],[-70.022723,47.411058],[-70.022718,47.411062],[-70.022713,47.411065],[-70.022709,47.411069],[-70.022704,47.411072],[-70.0227,47.411075],[-70.022695,47.411079],[-70.022691,47.411082],[-70.022686,47.411086],[-70.022682,47.411089],[-70.022678,47.411093],[-70.022673,47.411096],[-70.022669,47.4111],[-70.022665,47.411104],[-70.02266,47.411107],[-70.022656,47.411111],[-70.022652,47.411114],[-70.022648,47.411118],[-70.022644,47.411122],[-70.02264,47.411125],[-70.022636,47.411129],[-70.022632,47.411133],[-70.022628,47.411137],[-70.022624,47.41114],[-70.02262,47.411144],[-70.022616,47.411148],[-70.022612,47.411152],[-70.022608,47.411155],[-70.022604,47.411159],[-70.0226,47.411163],[-70.022597,47.411167],[-70.022593,47.411171],[-70.022589,47.411174],[-70.022585,47.411178],[-70.022582,47.411182],[-70.022578,47.411186],[-70.022575,47.41119],[-70.022571,47.411194],[-70.022567,47.411198],[-70.022564,47.411202],[-70.022561,47.411206],[-70.022557,47.41121],[-70.022554,47.411214],[-70.02255,47.411218],[-70.022547,47.411222],[-70.022544,47.411226],[-70.02254,47.41123],[-70.022537,47.411234],[-70.022534,47.411238],[-70.022531,47.411242],[-70.022528,47.411246],[-70.022525,47.41125],[-70.022522,47.411254],[-70.022519,47.411259],[-70.022516,47.411263],[-70.022513,47.411267],[-70.02251,47.411271],[-70.022507,47.411275],[-70.022504,47.411279],[-70.022501,47.411284],[-70.022498,47.411288],[-70.022495,47.411292],[-70.022493,47.411296],[-70.02249,47.4113],[-70.022487,47.411305],[-70.022485,47.411309],[-70.022482,47.411313],[-70.02248,47.411317],[-70.022477,47.411322],[-70.022475,47.411326],[-70.022472,47.41133],[-70.02247,47.411335],[-70.022467,47.411339],[-70.022465,47.411343],[-70.022463,47.411348],[-70.02246,47.411352],[-70.022458,47.411356],[-70.022456,47.411361],[-70.022454,47.411365],[-70.022452,47.411369],[-70.02245,47.411374],[-70.022447,47.411378],[-70.022445,47.411383],[-70.022443,47.411387],[-70.022441,47.411391],[-70.02244,47.411396],[-70.022438,47.4114],[-70.022436,47.411405],[-70.022434,47.411409],[-70.022432,47.411414],[-70.02243,47.411418],[-70.022429,47.411422],[-70.022427,47.411427],[-70.022425,47.411431],[-70.022424,47.411436],[-70.022422,47.41144],[-70.022421,47.411445],[-70.022419,47.411449],[-70.022418,47.411454],[-70.022416,47.411458],[-70.022415,47.411463],[-70.022414,47.411467],[-70.022412,47.411472],[-70.022411,47.411476],[-70.02241,47.411481],[-70.022409,47.411483],[-70.022408,47.411488],[-70.022332,47.411781],[-70.022076,47.41182],[-70.022045,47.41194],[-70.022043,47.411948],[-70.022042,47.411954],[-70.02204,47.411962],[-70.022037,47.41197],[-70.022035,47.411978],[-70.022033,47.411986],[-70.02203,47.411994],[-70.022028,47.412003],[-70.022026,47.412011],[-70.022023,47.412019],[-70.022021,47.412027],[-70.022018,47.412035],[-70.022016,47.412043],[-70.022013,47.412051],[-70.02201,47.412059],[-70.022008,47.412067],[-70.022005,47.412076],[-70.022002,47.412084],[-70.022,47.412092],[-70.021997,47.4121],[-70.021994,47.412108],[-70.021991,47.412116],[-70.021988,47.412124],[-70.021985,47.412132],[-70.021982,47.41214],[-70.021979,47.412148],[-70.021976,47.412156],[-70.021973,47.412164],[-70.02197,47.412172],[-70.021967,47.41218],[-70.021964,47.412188],[-70.02196,47.412196],[-70.021957,47.412204],[-70.021954,47.412212],[-70.02195,47.41222],[-70.021947,47.412228],[-70.021944,47.412236],[-70.02194,47.412244],[-70.021937,47.412252],[-70.021933,47.41226],[-70.02193,47.412268],[-70.021926,47.412276],[-70.021922,47.412284],[-70.021919,47.412292],[-70.021915,47.4123],[-70.021911,47.412307],[-70.021908,47.412315],[-70.021904,47.412323],[-70.0219,47.412331],[-70.021896,47.412339],[-70.021892,47.412347],[-70.021888,47.412355],[-70.021884,47.412363],[-70.02188,47.41237],[-70.021876,47.412378],[-70.021872,47.412386],[-70.021868,47.412394],[-70.021864,47.412402],[-70.02186,47.412409],[-70.021855,47.412417],[-70.021851,47.412425],[-70.021847,47.412433],[-70.021843,47.412441],[-70.021838,47.412448],[-70.021834,47.412456],[-70.021829,47.412464],[-70.021825,47.412471],[-70.02182,47.412479],[-70.021816,47.412487],[-70.021811,47.412495],[-70.021807,47.412502],[-70.021802,47.41251],[-70.021797,47.412518],[-70.021793,47.412525],[-70.021788,47.412533],[-70.021783,47.412541],[-70.021778,47.412548],[-70.021774,47.412556],[-70.021769,47.412563],[-70.021764,47.412571],[-70.021759,47.412579],[-70.021754,47.412586],[-70.021749,47.412594],[-70.021744,47.412601],[-70.021739,47.412609],[-70.021734,47.412616],[-70.021728,47.412624],[-70.021723,47.412631],[-70.021718,47.412639],[-70.021713,47.412646],[-70.021708,47.412654],[-70.021702,47.412661],[-70.021697,47.412669],[-70.021691,47.412676],[-70.021686,47.412684],[-70.021681,47.412691],[-70.021675,47.412699],[-70.02167,47.412706],[-70.021664,47.412713],[-70.021658,47.412721],[-70.021653,47.412728],[-70.021647,47.412735],[-70.021642,47.412743],[-70.021636,47.41275],[-70.02163,47.412757],[-70.021624,47.412765],[-70.021618,47.412772],[-70.021613,47.412779],[-70.021607,47.412787],[-70.021601,47.412794],[-70.021595,47.412801],[-70.021589,47.412808],[-70.021583,47.412816],[-70.021577,47.412823],[-70.021571,47.41283],[-70.021565,47.412837],[-70.021559,47.412844],[-70.021552,47.412852],[-70.021546,47.412859],[-70.02154,47.412866],[-70.021534,47.412873],[-70.021527,47.41288],[-70.021521,47.412887],[-70.021515,47.412894],[-70.021508,47.412901],[-70.021502,47.412908],[-70.021496,47.412915],[-70.021489,47.412922],[-70.021483,47.412929],[-70.021476,47.412936],[-70.021469,47.412943],[-70.021463,47.41295],[-70.021456,47.412957],[-70.021449,47.412964],[-70.021443,47.412971],[-70.021436,47.412978],[-70.021429,47.412985],[-70.021422,47.412992],[-70.021416,47.412999],[-70.021409,47.413006],[-70.021402,47.413013],[-70.021395,47.413019],[-70.021388,47.413026],[-70.021381,47.413033],[-70.021374,47.41304],[-70.021367,47.413047],[-70.02136,47.413053],[-70.021353,47.41306],[-70.021346,47.413067],[-70.021339,47.413074],[-70.021331,47.41308],[-70.021324,47.413087],[-70.021317,47.413094],[-70.02131,47.4131],[-70.021302,47.413107],[-70.021295,47.413114],[-70.021288,47.41312],[-70.02128,47.413127],[-70.021273,47.413133],[-70.021265,47.41314],[-70.021258,47.413147],[-70.02125,47.413153],[-70.021243,47.41316],[-70.021235,47.413166],[-70.021228,47.413173],[-70.02122,47.413179],[-70.021212,47.413186],[-70.021205,47.413192],[-70.021197,47.413198],[-70.021189,47.413205],[-70.021181,47.413211],[-70.021174,47.413218],[-70.021166,47.413224],[-70.021158,47.41323],[-70.02115,47.413237],[-70.021142,47.413243],[-70.021134,47.413249],[-70.021126,47.413256],[-70.021118,47.413262],[-70.02111,47.413268],[-70.021102,47.413274],[-70.021094,47.413281],[-70.021086,47.413287],[-70.021078,47.413293],[-70.021069,47.413299],[-70.021061,47.413305],[-70.021053,47.413311],[-70.021045,47.413318],[-70.021037,47.413324],[-70.021028,47.41333],[-70.02102,47.413336],[-70.021012,47.413342],[-70.021003,47.413348],[-70.020995,47.413354],[-70.020986,47.41336],[-70.020978,47.413366],[-70.020969,47.413372],[-70.020961,47.413378],[-70.020952,47.413384],[-70.020944,47.41339],[-70.020935,47.413396],[-70.020926,47.413401],[-70.020918,47.413407],[-70.020915,47.413409],[-70.020907,47.413415],[-70.020898,47.413421],[-70.020889,47.413426],[-70.020881,47.413432],[-70.020872,47.413438],[-70.020863,47.413444],[-70.020854,47.413449],[-70.020845,47.413455],[-70.020836,47.413461],[-70.020827,47.413466],[-70.020818,47.413472],[-70.020809,47.413478],[-70.0208,47.413483],[-70.020791,47.413489],[-70.020782,47.413494],[-70.020773,47.4135],[-70.020764,47.413506],[-70.020755,47.413511],[-70.020746,47.413517],[-70.020737,47.413522],[-70.020728,47.413528],[-70.020718,47.413533],[-70.020709,47.413538],[-70.0207,47.413544],[-70.020691,47.413549],[-70.020681,47.413555],[-70.020672,47.41356],[-70.020663,47.413565],[-70.020653,47.413571],[-70.020644,47.413576],[-70.020634,47.413581],[-70.020625,47.413586],[-70.020615,47.413592],[-70.020606,47.413597],[-70.020596,47.413602],[-70.020587,47.413607],[-70.020577,47.413612],[-70.020568,47.413617],[-70.020558,47.413623],[-70.020548,47.413628],[-70.020539,47.413633],[-70.020529,47.413638],[-70.020519,47.413643],[-70.02051,47.413648],[-70.0205,47.413653],[-70.020382,47.413576],[-70.020373,47.41358],[-70.020365,47.413585],[-70.020355,47.413589],[-70.020345,47.413594],[-70.020335,47.413599],[-70.020326,47.413604],[-70.020316,47.413608],[-70.020306,47.413613],[-70.020296,47.413618],[-70.020287,47.413622],[-70.020277,47.413627],[-70.020267,47.413632],[-70.020257,47.413636],[-70.020247,47.413641],[-70.020237,47.413645],[-70.020227,47.41365],[-70.020217,47.413654],[-70.020207,47.413659],[-70.020197,47.413663],[-70.020187,47.413668],[-70.020177,47.413672],[-70.020167,47.413676],[-70.020157,47.413681],[-70.020147,47.413685],[-70.020137,47.41369],[-70.020127,47.413694],[-70.020117,47.413698],[-70.020106,47.413702],[-70.020096,47.413707],[-70.020086,47.413711],[-70.020076,47.413715],[-70.020065,47.413719],[-70.020055,47.413723],[-70.020045,47.413728],[-70.020034,47.413732],[-70.020024,47.413736],[-70.020014,47.41374],[-70.020003,47.413744],[-70.019993,47.413748],[-70.019983,47.413752],[-70.019972,47.413756],[-70.019962,47.41376],[-70.019951,47.413764],[-70.019941,47.413768],[-70.01993,47.413772],[-70.01992,47.413776],[-70.019909,47.413779],[-70.019899,47.413783],[-70.019895,47.413785],[-70.019885,47.413788],[-70.019874,47.413792],[-70.019863,47.413796],[-70.019853,47.4138],[-70.019842,47.413803],[-70.019831,47.413807],[-70.019821,47.413811],[-70.01981,47.413814],[-70.019799,47.413818],[-70.019789,47.413822],[-70.019778,47.413825],[-70.019767,47.413829],[-70.019756,47.413832],[-70.019746,47.413836],[-70.019735,47.413839],[-70.019724,47.413843],[-70.019713,47.413846],[-70.019702,47.41385],[-70.019691,47.413853],[-70.01968,47.413856],[-70.01967,47.41386],[-70.019659,47.413863],[-70.019648,47.413866],[-70.019637,47.41387],[-70.019626,47.413873],[-70.019615,47.413876],[-70.019604,47.413879],[-70.019593,47.413883],[-70.019582,47.413886],[-70.019571,47.413889],[-70.01956,47.413892],[-70.019549,47.413895],[-70.019538,47.413898],[-70.019526,47.413901],[-70.019515,47.413904],[-70.019504,47.413907],[-70.019493,47.41391],[-70.019482,47.413913],[-70.019471,47.413916],[-70.01946,47.413919],[-70.019448,47.413922],[-70.019437,47.413925],[-70.019426,47.413928],[-70.019415,47.413931],[-70.019403,47.413933],[-70.019392,47.413936],[-70.019381,47.413939],[-70.01937,47.413942],[-70.019358,47.413944],[-70.019347,47.413947],[-70.022716,47.416167],[-70.022444,47.416436],[-70.02241,47.416546],[-70.022332,47.41752],[-70.020665,47.418555],[-70.017111,47.416212],[-70.016657,47.415919],[-70.01653,47.415837],[-70.016487,47.416363],[-70.01636,47.41628],[-70.011662,47.413196],[-70.011329,47.412978],[-70.010417,47.412379],[-70.010599,47.412329],[-70.010251,47.412099],[-70.01026,47.412097],[-70.010269,47.412094],[-70.01029,47.412088],[-70.010312,47.412082],[-70.010334,47.412076],[-70.010355,47.41207],[-70.010358,47.412069],[-70.010379,47.412063],[-70.01039,47.41206],[-70.010401,47.412056],[-70.010412,47.412053],[-70.010423,47.41205],[-70.010434,47.412047],[-70.010445,47.412043],[-70.010456,47.41204],[-70.010467,47.412037],[-70.010478,47.412033],[-70.010489,47.41203],[-70.010499,47.412026],[-70.01051,47.412023],[-70.010521,47.41202],[-70.010532,47.412016],[-70.010543,47.412013],[-70.010553,47.412009],[-70.010564,47.412005],[-70.010575,47.412002],[-70.010586,47.411998],[-70.010596,47.411995],[-70.010607,47.411991],[-70.010618,47.411987],[-70.010628,47.411984],[-70.010639,47.41198],[-70.010649,47.411976],[-70.01066,47.411972],[-70.010671,47.411969],[-70.010681,47.411965],[-70.010692,47.411961],[-70.010702,47.411957],[-70.010713,47.411953],[-70.010723,47.411949],[-70.010734,47.411946],[-70.010744,47.411942],[-70.010755,47.411938],[-70.010765,47.411934],[-70.010775,47.41193],[-70.010786,47.411926],[-70.010796,47.411922],[-70.010807,47.411918],[-70.010817,47.411913],[-70.010827,47.411909],[-70.010833,47.411907],[-70.010843,47.411903],[-70.010848,47.411901],[-70.010858,47.411897],[-70.010864,47.411894],[-70.010871,47.411891],[-70.010878,47.411889],[-70.010884,47.411886],[-70.010891,47.411883],[-70.010898,47.41188],[-70.010904,47.411877],[-70.010911,47.411874],[-70.010917,47.411871],[-70.010924,47.411868],[-70.01093,47.411865],[-70.010937,47.411863],[-70.010943,47.41186],[-70.01095,47.411856],[-70.010956,47.411853],[-70.010962,47.41185],[-70.010969,47.411847],[-70.010975,47.411844],[-70.010981,47.411841],[-70.010988,47.411838],[-70.010994,47.411835],[-70.011,47.411832],[-70.011006,47.411828],[-70.011013,47.411825],[-70.011019,47.411822],[-70.011025,47.411819],[-70.011031,47.411815],[-70.011037,47.411812],[-70.011043,47.411809],[-70.011049,47.411805],[-70.011055,47.411802],[-70.011061,47.411799],[-70.011067,47.411795],[-70.011073,47.411792],[-70.011079,47.411788],[-70.011085,47.411785],[-70.011091,47.411781],[-70.011097,47.411778],[-70.011103,47.411774],[-70.011109,47.411771],[-70.011115,47.411767],[-70.01112,47.411764],[-70.011126,47.41176],[-70.011132,47.411756],[-70.011137,47.411753],[-70.011143,47.411749],[-70.011149,47.411746],[-70.011154,47.411742],[-70.01116,47.411738],[-70.011166,47.411734],[-70.011171,47.411731],[-70.011177,47.411727],[-70.011182,47.411723],[-70.011188,47.411719],[-70.011193,47.411716],[-70.011198,47.411712],[-70.011204,47.411708],[-70.011209,47.411704],[-70.011215,47.4117],[-70.01122,47.411696],[-70.011225,47.411692],[-70.01123,47.411688],[-70.011236,47.411684],[-70.011241,47.41168],[-70.011246,47.411676],[-70.011251,47.411673],[-70.011256,47.411668],[-70.011261,47.411664],[-70.011266,47.41166],[-70.011271,47.411656],[-70.011276,47.411652],[-70.011281,47.411648],[-70.011286,47.411644],[-70.011291,47.41164],[-70.011296,47.411636],[-70.011301,47.411632],[-70.011306,47.411627],[-70.011311,47.411623],[-70.011315,47.411619],[-70.01132,47.411615],[-70.011325,47.411611],[-70.011329,47.411606],[-70.011334,47.411602],[-70.011339,47.411598],[-70.011343,47.411594],[-70.011348,47.411589],[-70.011352,47.411585],[-70.011357,47.411581],[-70.011361,47.411576],[-70.011366,47.411572],[-70.01137,47.411567],[-70.011375,47.411563],[-70.011379,47.411559],[-70.011383,47.411554],[-70.011388,47.41155],[-70.011392,47.411545],[-70.011396,47.411541],[-70.0114,47.411536],[-70.011404,47.411532],[-70.011409,47.411527],[-70.011413,47.411523],[-70.011417,47.411518],[-70.011421,47.411514],[-70.011425,47.411509],[-70.011429,47.411505],[-70.011433,47.4115],[-70.011437,47.411495],[-70.01144,47.411491],[-70.011444,47.411486],[-70.011448,47.411482],[-70.011452,47.411477],[-70.011456,47.411472],[-70.011459,47.411468],[-70.011463,47.411463],[-70.011467,47.411458],[-70.01147,47.411454],[-70.011471,47.411452],[-70.011475,47.411447],[-70.011051,47.411165],[-70.01126,47.411018],[-70.011751,47.410671],[-70.011866,47.410232],[-70.011868,47.410224],[-70.011869,47.410218],[-70.011871,47.41021],[-70.011874,47.410203],[-70.011876,47.410195],[-70.011878,47.410187],[-70.01188,47.410179],[-70.011883,47.410171],[-70.011885,47.410164],[-70.011887,47.410156],[-70.01189,47.410148],[-70.011892,47.41014],[-70.011895,47.410133],[-70.011897,47.410125],[-70.0119,47.410117],[-70.011902,47.410109],[-70.011905,47.410101],[-70.011908,47.410094],[-70.01191,47.410086],[-70.011913,47.410078],[-70.011916,47.410071],[-70.011919,47.410063],[-70.011922,47.410055],[-70.011925,47.410047],[-70.011928,47.41004],[-70.011931,47.410032],[-70.011934,47.410024],[-70.011937,47.410017],[-70.01194,47.410009],[-70.011943,47.410001],[-70.011946,47.409994],[-70.011949,47.409986],[-70.011952,47.409978],[-70.011956,47.409971],[-70.011959,47.409963],[-70.011962,47.409955],[-70.011965,47.409948],[-70.011969,47.40994],[-70.011972,47.409933],[-70.011976,47.409925],[-70.011979,47.409917],[-70.011983,47.40991],[-70.011986,47.409902],[-70.01199,47.409895],[-70.011994,47.409887],[-70.011997,47.409879],[-70.012001,47.409872],[-70.012005,47.409864],[-70.012009,47.409857],[-70.012012,47.409849],[-70.012016,47.409842],[-70.01202,47.409834],[-70.012024,47.409827],[-70.012028,47.409819],[-70.012032,47.409812],[-70.012036,47.409804],[-70.01204,47.409797],[-70.012044,47.409789],[-70.012048,47.409782],[-70.012052,47.409775],[-70.012057,47.409767],[-70.012061,47.40976],[-70.012065,47.409752],[-70.012069,47.409745],[-70.012074,47.409738],[-70.012078,47.40973],[-70.012083,47.409723],[-70.012087,47.409715],[-70.012092,47.409708],[-70.012096,47.409701],[-70.012101,47.409693],[-70.012105,47.409686],[-70.01211,47.409679],[-70.012114,47.409671],[-70.012119,47.409664],[-70.012124,47.409657],[-70.012129,47.40965],[-70.012133,47.409642],[-70.012138,47.409635],[-70.012143,47.409628],[-70.012148,47.409621],[-70.012153,47.409613],[-70.012155,47.409611],[-70.01216,47.409604],[-70.012165,47.409596],[-70.01217,47.409589],[-70.012175,47.409582],[-70.01218,47.409575],[-70.012185,47.409568],[-70.01219,47.409561],[-70.012195,47.409553],[-70.0122,47.409546],[-70.012206,47.409539],[-70.012211,47.409532],[-70.012216,47.409525],[-70.012222,47.409518],[-70.012227,47.409511],[-70.012233,47.409504],[-70.012238,47.409497],[-70.012243,47.40949],[-70.012249,47.409483],[-70.012255,47.409476],[-70.01226,47.409469],[-70.012266,47.409462],[-70.012271,47.409455],[-70.012277,47.409448],[-70.012283,47.409441],[-70.012289,47.409434],[-70.012294,47.409427],[-70.0123,47.40942],[-70.012306,47.409413],[-70.012312,47.409406],[-70.012318,47.4094],[-70.012324,47.409393],[-70.01233,47.409386],[-70.012336,47.409379],[-70.012342,47.409372],[-70.012348,47.409365],[-70.012354,47.409359],[-70.01236,47.409352],[-70.012366,47.409345],[-70.012373,47.409338],[-70.012379,47.409332],[-70.012385,47.409325],[-70.012391,47.409318],[-70.012398,47.409311],[-70.012404,47.409305],[-70.01241,47.409298],[-70.012417,47.409291],[-70.012423,47.409285],[-70.01243,47.409278],[-70.012436,47.409272],[-70.012443,47.409265],[-70.012449,47.409258],[-70.012456,47.409252],[-70.012463,47.409245],[-70.012469,47.409239],[-70.012476,47.409232],[-70.012483,47.409226],[-70.01249,47.409219],[-70.012496,47.409213],[-70.012503,47.409206],[-70.01251,47.4092],[-70.012517,47.409193],[-70.012524,47.409187],[-70.012531,47.409181],[-70.012538,47.409174],[-70.012545,47.409168],[-70.012552,47.409161],[-70.012559,47.409155],[-70.012566,47.409149],[-70.012573,47.409142],[-70.01258,47.409136],[-70.012587,47.40913],[-70.012594,47.409123],[-70.012602,47.409117],[-70.012609,47.409111],[-70.012616,47.409105],[-70.012624,47.409099],[-70.012631,47.409092],[-70.012638,47.409086],[-70.012646,47.40908],[-70.012653,47.409074],[-70.012661,47.409068],[-70.012668,47.409062],[-70.012676,47.409055],[-70.012683,47.409049],[-70.012691,47.409043],[-70.012698,47.409037],[-70.012706,47.409031],[-70.012714,47.409025],[-70.012721,47.409019],[-70.012729,47.409013],[-70.012737,47.409007],[-70.012745,47.409001],[-70.012749,47.408998],[-70.012757,47.408992],[-70.012765,47.408986],[-70.012773,47.40898],[-70.012781,47.408974],[-70.012789,47.408968],[-70.012797,47.408962],[-70.012805,47.408957],[-70.012813,47.408951],[-70.012821,47.408945],[-70.012829,47.408939],[-70.012837,47.408933],[-70.012845,47.408928],[-70.012853,47.408922],[-70.012861,47.408916],[-70.01287,47.408911],[-70.012878,47.408905],[-70.012886,47.408899],[-70.012894,47.408894],[-70.012903,47.408888],[-70.012911,47.408882],[-70.012919,47.408877],[-70.012928,47.408871],[-70.012936,47.408866],[-70.012945,47.40886],[-70.012953,47.408855],[-70.012961,47.408849],[-70.01297,47.408844],[-70.012979,47.408838],[-70.012987,47.408833],[-70.012996,47.408827],[-70.013004,47.408822],[-70.013013,47.408817],[-70.013022,47.408811],[-70.01303,47.408806],[-70.013039,47.408801],[-70.013048,47.408795],[-70.013056,47.40879],[-70.013065,47.408785],[-70.013074,47.40878],[-70.013083,47.408774],[-70.013092,47.408769],[-70.013101,47.408764],[-70.01311,47.408759],[-70.013119,47.408754],[-70.013127,47.408749],[-70.013136,47.408743],[-70.013145,47.408738],[-70.013154,47.408733],[-70.013164,47.408728],[-70.013173,47.408723],[-70.013182,47.408718],[-70.013191,47.408713],[-70.0132,47.408708],[-70.013209,47.408703],[-70.013218,47.408698],[-70.013228,47.408693],[-70.013237,47.408688],[-70.013246,47.408684],[-70.013255,47.408679],[-70.013265,47.408674],[-70.013274,47.408669],[-70.013283,47.408664],[-70.013293,47.40866],[-70.013302,47.408655],[-70.013311,47.40865],[-70.013321,47.408645],[-70.01333,47.408641],[-70.01334,47.408636],[-70.013349,47.408631],[-70.013359,47.408627],[-70.013368,47.408622],[-70.013378,47.408617],[-70.013388,47.408613],[-70.013397,47.408608],[-70.013407,47.408604],[-70.013417,47.408599],[-70.013426,47.408595],[-70.013436,47.40859],[-70.013446,47.408586],[-70.013455,47.408581],[-70.013465,47.408577],[-70.013475,47.408573],[-70.013485,47.408568],[-70.013495,47.408564],[-70.013504,47.40856],[-70.013514,47.408555],[-70.013524,47.408551],[-70.013534,47.408547],[-70.013544,47.408543],[-70.013554,47.408538],[-70.013564,47.408534],[-70.013574,47.40853],[-70.013584,47.408526],[-70.013594,47.408522],[-70.013604,47.408518],[-70.013614,47.408513],[-70.013624,47.408509],[-70.013634,47.408505],[-70.013644,47.408501],[-70.013654,47.408497],[-70.013664,47.408493],[-70.013675,47.408489],[-70.013685,47.408485],[-70.013695,47.408482],[-70.013705,47.408478],[-70.013715,47.408474],[-70.013726,47.40847],[-70.009108,47.405309],[-70.001666,47.400249],[-69.99533,47.396004],[-69.991989,47.393788],[-69.991373,47.39339],[-69.99118,47.393263],[-69.990927,47.393093],[-69.990664,47.392916],[-69.988429,47.39144],[-69.988124,47.391234],[-69.979922,47.385728],[-69.977468,47.384046],[-69.96902,47.378255],[-69.968125,47.378845],[-69.967243,47.379426],[-69.967028,47.379588],[-69.96675,47.379798],[-69.96537,47.380505],[-69.961095,47.382697],[-69.960913,47.382539],[-69.960889,47.38233],[-69.960843,47.382035],[-69.960837,47.381838],[-69.960882,47.381666],[-69.960832,47.381414],[-69.960683,47.381206],[-69.960457,47.381051],[-69.96016,47.38092],[-69.959731,47.380819],[-69.959303,47.380742],[-69.959023,47.380706],[-69.958559,47.38067],[-69.95819,47.380676],[-69.957703,47.380837],[-69.957328,47.38098],[-69.957038,47.381028],[-69.956756,47.380998],[-69.956417,47.380926],[-69.956138,47.380885],[-69.955822,47.380902],[-69.955406,47.380962],[-69.954995,47.381087],[-69.95446,47.381283],[-69.954073,47.381462],[-69.953782,47.38161],[-69.953567,47.381741],[-69.953335,47.381848],[-69.953201,47.381841],[-69.95299,47.381771],[-69.952758,47.38161],[-69.952425,47.381337],[-69.952062,47.380956],[-69.951812,47.380623],[-69.951562,47.380349],[-69.951324,47.380093],[-69.951104,47.379879],[-69.950819,47.379576],[-69.950527,47.379329],[-69.950247,47.379204],[-69.950027,47.379207],[-69.949661,47.379248],[-69.949328,47.379314],[-69.948986,47.379317],[-69.948716,47.379282],[-69.94832,47.379145],[-69.947876,47.378951],[-69.947394,47.378775],[-69.947017,47.378653],[-69.946847,47.378531],[-69.946689,47.378476],[-69.946303,47.378552],[-69.946091,47.378552],[-69.945928,47.378478],[-69.945886,47.37835],[-69.945891,47.378291],[-69.945888,47.378289],[-69.945931,47.378011],[-69.945984,47.377877],[-69.946068,47.377746],[-69.946175,47.377627],[-69.946358,47.37748],[-69.946514,47.377308],[-69.942823,47.374999],[-69.94273,47.37499],[-69.938094,47.372149],[-69.938112,47.372143],[-69.938112,47.372134],[-69.938205,47.372107],[-69.938352,47.372],[-69.938365,47.372],[-69.939915,47.370766],[-69.9402,47.370537],[-69.944269,47.372856],[-69.944176,47.372571],[-69.944045,47.372255],[-69.943956,47.372071],[-69.943849,47.371932],[-69.943718,47.371738],[-69.943629,47.371541],[-69.943575,47.371363],[-69.943551,47.371143],[-69.943593,47.37097],[-69.943682,47.370774],[-69.943843,47.370542],[-69.944057,47.370173],[-69.9442,47.369905],[-69.944307,47.369643],[-69.944372,47.369405],[-69.944349,47.369048],[-69.944289,47.368745],[-69.944331,47.368412],[-69.94442,47.368186],[-69.944545,47.367834],[-69.944634,47.367501],[-69.944599,47.367204],[-69.944521,47.366912],[-69.944408,47.366585],[-69.944301,47.366192],[-69.944236,47.365818],[-69.944173,47.365568],[-69.944146,47.365269],[-69.944105,47.364996],[-69.944039,47.364663],[-69.943955,47.364307],[-69.943944,47.364044],[-69.943992,47.363729],[-69.943992,47.363444],[-69.944009,47.363054],[-69.944017,47.362778],[-69.944117,47.362396],[-69.944298,47.362084],[-69.94402,47.361899],[-69.943521,47.3615],[-69.93996,47.358964],[-69.937149,47.356873],[-69.935783,47.355885],[-69.932236,47.353349],[-69.930909,47.352389],[-69.928257,47.350433],[-69.924027,47.347407],[-69.919286,47.344109],[-69.916239,47.341952],[-69.915202,47.341173],[-69.911288,47.3385],[-69.906901,47.335517],[-69.902542,47.332526],[-69.898038,47.329435],[-69.89494,47.32735],[-69.89339,47.326361],[-69.888243,47.322988],[-69.883175,47.319641],[-69.878264,47.316538],[-69.873301,47.313407],[-69.867892,47.310004],[-69.863573,47.307282],[-69.858992,47.304405],[-69.855353,47.302168],[-69.855357,47.302108],[-69.855344,47.302009],[-69.855266,47.301919],[-69.855148,47.301828],[-69.854662,47.30161],[-69.854201,47.301418],[-69.854031,47.3013],[-69.853769,47.301074],[-69.853664,47.30101],[-69.8535,47.300993],[-69.848322,47.297769],[-69.846202,47.29646],[-69.843925,47.295054],[-69.838979,47.291958],[-69.834085,47.288925],[-69.831921,47.287563],[-69.832425,47.286802],[-69.832729,47.287004],[-69.837232,47.280423],[-69.840241,47.275389],[-69.843249,47.270357],[-69.846256,47.265325],[-69.849263,47.260293],[-69.851919,47.256369],[-69.852869,47.254966],[-69.855299,47.251176],[-69.855907,47.250248],[-69.858672,47.245915],[-69.862043,47.240654],[-69.865414,47.235392],[-69.868784,47.230131],[-69.872034,47.225058],[-69.876881,47.228166],[-69.879386,47.22977],[-69.882479,47.23175],[-69.887015,47.234653],[-69.890331,47.236811],[-69.897398,47.241436],[-69.900926,47.243722],[-69.904084,47.245924],[-69.910037,47.249994],[-69.91001,47.250003],[-69.910889,47.250565],[-69.914956,47.253213],[-69.918616,47.255588],[-69.922801,47.258326],[-69.927446,47.261345],[-69.931737,47.264146],[-69.934874,47.266177],[-69.938091,47.268073],[-69.942504,47.270685],[-69.944422,47.271828],[-69.946681,47.273152],[-69.947587,47.273804],[-69.950028,47.275435],[-69.953166,47.277528],[-69.957459,47.2804],[-69.961082,47.282828],[-69.965573,47.285817],[-69.96929,47.288309],[-69.972797,47.290628],[-69.973703,47.291261],[-69.978828,47.289036],[-69.982931,47.287237],[-69.986662,47.285608],[-69.986695,47.285556],[-69.986726,47.285537],[-69.986808,47.285487],[-69.987092,47.285313],[-69.987449,47.285151],[-69.988004,47.284936],[-69.988573,47.284693],[-69.989301,47.28436],[-69.989896,47.284117],[-69.990636,47.283802],[-69.990703,47.283775],[-69.991099,47.283595],[-69.991443,47.283433],[-69.992065,47.283154],[-69.99229,47.283064],[-69.992422,47.28301],[-69.992739,47.282875],[-69.993321,47.282614],[-69.993414,47.282578],[-69.99352,47.282533],[-69.993692,47.282461],[-69.993956,47.282344],[-69.994816,47.281975],[-69.995517,47.281669],[-69.995675,47.281606],[-69.996178,47.28139],[-69.996201,47.281381],[-69.996337,47.281327],[-69.996694,47.281165],[-69.997038,47.281012],[-69.997659,47.280742],[-69.99795,47.280616],[-69.998175,47.280544],[-69.998532,47.280382],[-69.998744,47.280292],[-69.998982,47.280193],[-69.999947,47.279761],[-70,47.279743],[-70.000489,47.279545],[-70.000595,47.2795],[-70.000886,47.279374],[-70.001177,47.279257],[-70.001653,47.279059],[-70.001785,47.279005],[-70.002042,47.278895],[-70.002276,47.278794],[-70.002573,47.278667],[-70.003033,47.278469],[-70.008573,47.282178],[-70.013066,47.285202],[-70.017876,47.288388],[-70.022659,47.291575],[-70.026799,47.294345],[-70.027584,47.294878]]],
        "type": "Polygon"
    }
}