{
  "id": 101738407,
  "type": "Feature",
  "properties": {
    "edtf:cessation":"2025-09-03",
    "edtf:inception":"uuuu",
    "geom:area":0.011925,
    "geom:area_square_m":100008919.657072,
    "geom:bbox":"-70.027584,47.225058,-69.831921,47.368784",
    "geom:latitude":47.296448,
    "geom:longitude":-69.921718,
    "iso:country":"CA",
    "lbl:latitude":47.300685,
    "lbl:longitude":-69.920201,
    "lbl:max_zoom":18.0,
    "lbl:min_zoom":13.5,
    "mps:latitude":47.300685,
    "mps:longitude":-69.920201,
    "mz:hierarchy_label":1,
    "mz:is_current":1,
    "mz:min_zoom":12.0,
    "name:ceb_x_preferred":[
        "Saint-On\u00e9sime-d'Ixworth"
    ],
    "name:deu_x_preferred":[
        "Saint-On\u00e9sime-d'Ixworth"
    ],
    "name:eng_x_preferred":[
        "Saint-On\u00e9sime-d'Ixworth"
    ],
    "name:eus_x_preferred":[
        "Saint-On\u00e9sime-d'Ixworth"
    ],
    "name:fas_x_preferred":[
        "\u0633\u0646-\u0627\u0648\u0646\u0632\u06cc\u0645-\u062f\u06cc\u06a9\u0633\u0648\u0648\u0631\u062a\u060c \u06a9\u0628\u06a9"
    ],
    "name:fas_x_variant":[
        "\u0633\u0646-\u0627\u0648\u0646\u0632\u06cc\u0645-\u062f\u06cc\u06a9\u0633\u0648\u0648\u0631\u062a"
    ],
    "name:fra_x_preferred":[
        "Saint-On\u00e9sime-d'Ixworth"
    ],
    "name:nld_x_preferred":[
        "Saint-On\u00e9sime-d'Ixworth"
    ],
    "name:por_x_preferred":[
        "Saint-On\u00e9sime-d'Ixworth"
    ],
    "name:spa_x_preferred":[
        "Saint-On\u00e9sime-d'Ixworth"
    ],
    "name:swe_x_preferred":[
        "Saint-On\u00e9sime-d'Ixworth"
    ],
    "name:urd_x_preferred":[
        "\u0633\u06cc\u0646\u0679-\u0624\u06ba \u06cc\u0633\u0645\u06d2-\u062f\u0634\u06cc\u0648\u0691\u0637\u060c \u06a9\u06cc\u0648\u0628\u06a9"
    ],
    "name:urd_x_variant":[
        "\u0633\u06cc\u0646\u0679-\u0624\u06ba \u06cc\u0633\u0645\u06d2-\u062f\u0634\u06cc\u0648\u0691\u0637"
    ],
    "qs:a0":"Canada",
    "qs:a1":"*Quebec",
    "qs:a1_lc":"QC",
    "qs:a1r":"*",
    "qs:adm0":"Canada",
    "qs:id":0,
    "qs:la_lc":"*",
    "qs:level":"locality",
    "qs:loc":"Saint-On\u00e9sime-d'Ixworth",
    "qs:loc_alt":"Saint-On\u00e9sime-d'Ixworth",
    "qs:loc_lc":"ad049ec1be4d11d892e2080020a0f4c9",
    "qs:pop":0,
    "qs:source":"NCanada Census",
    "qs:type":"Municipalit\u00e9",
    "src:geom":"quattroshapes",
    "src:geom_alt":[],
    "src:lbl_centroid":"mapshaper",
    "wd:wordcount":73,
    "wof:belongsto":[
        102191575,
        85633041,
        890456817,
        136251273
    ],
    "wof:breaches":[],
    "wof:concordances":{
        "gp:id":23396592,
        "statcan:nid":"ad049ec1be4d11d892e2080020a0f4c9",
        "wd:id":"Q3463078"
    },
    "wof:concordances_official":"statcan:nid",
    "wof:country":"CA",
    "wof:geomhash":"1d32a6c34b8acea23f6848e234c7bd07",
    "wof:hierarchy":[
        {
            "continent_id":102191575,
            "country_id":85633041,
            "county_id":890456817,
            "locality_id":101738407,
            "region_id":136251273
        }
    ],
    "wof:id":101738407,
    "wof:lastmodified":1788900984,
    "wof:name":"Saint-On\u00e9sime-d'Ixworth",
    "wof:parent_id":890456817,
    "wof:placetype":"locality",
    "wof:population_rank":0,
    "wof:repo":"whosonfirst-data-admin-ca",
    "wof:superseded_by":[2048281069],
    "wof:supersedes":[],
    "wof:tags":[]
},
  "bbox": [
    -70.027584,
    47.225058,
    -69.831921,
    47.368784
],
  "geometry": {"coordinates":[[[-69.832425,47.286802],[-69.832729,47.287004],[-69.837232,47.280423],[-69.84024100000001,47.275389],[-69.843249,47.270357],[-69.846256,47.265325],[-69.84926299999999,47.260293],[-69.851919,47.256369],[-69.852869,47.254966],[-69.855299,47.251176],[-69.855907,47.250248],[-69.858672,47.245915],[-69.862043,47.240654],[-69.865414,47.235392],[-69.86878400000001,47.230131],[-69.872034,47.225058],[-69.876881,47.228166],[-69.879386,47.22977],[-69.882479,47.23175],[-69.88701500000001,47.234653],[-69.890331,47.236811],[-69.897398,47.241436],[-69.900926,47.243722],[-69.904084,47.245924],[-69.910037,47.249994],[-69.91001,47.250003],[-69.910889,47.250565],[-69.914956,47.253213],[-69.918616,47.255588],[-69.92280100000001,47.258326],[-69.927446,47.261345],[-69.931737,47.264146],[-69.93487399999999,47.266177],[-69.938091,47.268073],[-69.942504,47.270685],[-69.944422,47.271828],[-69.946681,47.273152],[-69.947587,47.273804],[-69.950028,47.275435],[-69.953166,47.277528],[-69.957459,47.2804],[-69.961082,47.282828],[-69.96557300000001,47.285817],[-69.96929,47.288309],[-69.972797,47.290628],[-69.973703,47.291261],[-69.97882799999999,47.289036],[-69.98293099999999,47.287237],[-69.986662,47.285608],[-69.986695,47.285556],[-69.986726,47.285537],[-69.986808,47.285487],[-69.987092,47.285313],[-69.987449,47.285151],[-69.988004,47.284936],[-69.988573,47.284693],[-69.989301,47.28436],[-69.989896,47.284117],[-69.99063599999999,47.283802],[-69.990703,47.283775],[-69.99109900000001,47.283595],[-69.991443,47.283433],[-69.992065,47.283154],[-69.99229,47.283064],[-69.992422,47.28301],[-69.992739,47.282875],[-69.99332099999999,47.282614],[-69.993414,47.282578],[-69.99352,47.282533],[-69.993692,47.282461],[-69.993956,47.282344],[-69.994816,47.281975],[-69.99551700000001,47.281669],[-69.99567500000001,47.281606],[-69.996178,47.28139],[-69.996201,47.281381],[-69.996337,47.281327],[-69.99669400000001,47.281165],[-69.997038,47.281012],[-69.997659,47.280742],[-69.99795,47.280616],[-69.998175,47.280544],[-69.998532,47.280382],[-69.998744,47.280292],[-69.998982,47.280193],[-69.99994700000001,47.279761],[-70.0,47.279743],[-70.000489,47.279545],[-70.000595,47.2795],[-70.00088599999999,47.279374],[-70.001177,47.279257],[-70.001653,47.279059],[-70.001785,47.279005],[-70.002042,47.278895],[-70.00227599999999,47.278794],[-70.002573,47.278667],[-70.003033,47.278469],[-70.008573,47.282178],[-70.01306599999999,47.285202],[-70.017876,47.288388],[-70.022659,47.291575],[-70.026799,47.294345],[-70.027584,47.294878],[-70.02516199999999,47.297091],[-70.023802,47.298317],[-70.022468,47.29958],[-70.021908,47.300082],[-70.021136,47.300636],[-70.019858,47.301584],[-70.019193,47.302076],[-70.01863299999999,47.302596],[-70.01791299999999,47.303204],[-70.016369,47.304268],[-70.01273500000001,47.306799],[-70.00914299999999,47.309131],[-70.00593600000001,47.31124],[-70.004499,47.312188],[-70.004419,47.312234],[-70.003833,47.312635],[-70.003327,47.312974],[-70.00254,47.313699],[-70.001248,47.314665],[-69.999995,47.315622],[-69.999995,47.315676],[-69.997276,47.317796],[-69.994544,47.319943],[-69.992358,47.321652],[-69.992132,47.32184],[-69.99185,47.322234],[-69.99141,47.322565],[-69.98871800000001,47.324676],[-69.985755,47.327281],[-69.983273,47.329464],[-69.981499,47.328233],[-69.980054,47.329819],[-69.977982,47.332058],[-69.97721900000001,47.332891],[-69.97675099999999,47.333348],[-69.97495000000001,47.334887],[-69.972869,47.336524],[-69.971479,47.33792],[-69.969741,47.339721],[-69.969167,47.34024],[-69.967871,47.341403],[-69.96750900000001,47.341878],[-69.966905,47.342748],[-69.96584799999999,47.345172],[-69.964927,47.347218],[-69.96381700000001,47.349678],[-69.962772,47.352246],[-69.96285399999999,47.354576],[-69.962947,47.357167],[-69.964696,47.358327],[-69.964483,47.358479],[-69.96351,47.359095],[-69.96328699999999,47.358932],[-69.960678,47.361582],[-69.959621,47.36272],[-69.958669,47.363822],[-69.956339,47.366446],[-69.954785,47.368202],[-69.954369,47.368668],[-69.954262,47.368784],[-69.951909,47.367181],[-69.947925,47.364499],[-69.944298,47.362084],[-69.94401999999999,47.361899],[-69.943521,47.3615],[-69.93996,47.358964],[-69.93714900000001,47.356873],[-69.935783,47.355885],[-69.932236,47.353349],[-69.930909,47.352389],[-69.928257,47.350433],[-69.924027,47.347407],[-69.919286,47.344109],[-69.916239,47.341952],[-69.91520199999999,47.341173],[-69.911288,47.3385],[-69.906901,47.335517],[-69.902542,47.332526],[-69.898038,47.329435],[-69.89494000000001,47.32735],[-69.89339,47.326361],[-69.888243,47.322988],[-69.88317499999999,47.319641],[-69.878264,47.316538],[-69.873301,47.313407],[-69.867892,47.310004],[-69.863573,47.307282],[-69.858992,47.304405],[-69.85535299999999,47.302168],[-69.855357,47.302108],[-69.855344,47.302009],[-69.855266,47.301919],[-69.855148,47.301828],[-69.854662,47.30161],[-69.854201,47.301418],[-69.85403100000001,47.3013],[-69.853769,47.301074],[-69.85366399999999,47.30101],[-69.8535,47.300993],[-69.848322,47.297769],[-69.84620200000001,47.29646],[-69.843925,47.295054],[-69.83897899999999,47.291958],[-69.834085,47.288925],[-69.83192099999999,47.287563],[-69.832425,47.286802]]],"type":"Polygon"}
}