{
  "id": 101738899,
  "type": "Feature",
  "properties": {
    "edtf:cessation":"2025-09-03",
    "edtf:inception":"uuuu",
    "geom:area":0.002537,
    "geom:area_square_m":21246078.519436,
    "geom:bbox":"-70.0773,47.341617,-70.001666,47.418555",
    "geom:latitude":47.378387,
    "geom:longitude":-70.03588,
    "gn:population":4575,
    "iso:country":"CA",
    "lbl:latitude":47.379077,
    "lbl:longitude":-70.032724,
    "lbl:max_zoom":15.0,
    "lbl:min_zoom":11.5,
    "mps:latitude":47.379077,
    "mps:longitude":-70.032724,
    "mz:hierarchy_label":1,
    "mz:is_current":0,
    "mz:min_zoom":11.0,
    "name:ara_x_preferred":[
        "\u0644\u0627 \u0628\u0648\u0643\u0627\u0631\u064a\u0647"
    ],
    "name:atj_x_preferred":[
        "La Pocati\u00e8re"
    ],
    "name:ceb_x_preferred":[
        "La Pocati\u00e8re"
    ],
    "name:deu_x_preferred":[
        "La Pocati\u00e8re"
    ],
    "name:diq_x_preferred":[
        "La Pocati\u00e8re"
    ],
    "name:ell_x_preferred":[
        "\u039b\u03b1 \u03a0\u03bf\u03ba\u03b1\u03c4\u03b9\u03ad\u03c1"
    ],
    "name:eng_x_preferred":[
        "La Pocati\u00e8re"
    ],
    "name:eng_x_variant":[
        "Ste. Anne de la Pocati\u00e8re"
    ],
    "name:est_x_preferred":[
        "La Pocati\u00e8re"
    ],
    "name:eus_x_preferred":[
        "La Pocati\u00e8re"
    ],
    "name:fas_x_preferred":[
        "\u0644\u0627 \u067e\u0648\u06a9\u0627\u062a\u06cc\u06cc\u0631\u060c \u06a9\u0628\u06a9"
    ],
    "name:fas_x_variant":[
        "\u0644\u0627 \u067e\u0648\u06a9\u0627\u062a\u06cc\u06cc\u0631"
    ],
    "name:fra_x_preferred":[
        "La Pocati\u00e8re"
    ],
    "name:hak_x_preferred":[
        "La Pocati\u00e8re"
    ],
    "name:hbs_x_preferred":[
        "La Pocati\u00e8re"
    ],
    "name:ita_x_preferred":[
        "La Pocati\u00e8re"
    ],
    "name:jpn_x_preferred":[
        "\u30e9\u30fb\u30dd\u30ab\u30c6\u30a3\u30a8\u30fc\u30eb"
    ],
    "name:nld_x_preferred":[
        "La Pocati\u00e8re"
    ],
    "name:nno_x_preferred":[
        "La Pocati\u00e8re"
    ],
    "name:nob_x_preferred":[
        "La Pocati\u00e8re"
    ],
    "name:pol_x_preferred":[
        "La Pocati\u00e8re"
    ],
    "name:por_x_preferred":[
        "La Pocati\u00e8re"
    ],
    "name:rus_x_preferred":[
        "\u041b\u0430-\u041f\u043e\u043a\u0430\u0442\u044c\u0435\u0440"
    ],
    "name:spa_x_preferred":[
        "La Pocati\u00e8re"
    ],
    "name:srp_x_preferred":[
        "\u041b\u0430 \u041f\u043e\u043a\u0430\u0442\u0458\u0435\u0440"
    ],
    "name:swe_x_preferred":[
        "La Pocati\u00e8re"
    ],
    "name:vol_x_preferred":[
        "La Pocati\u00e8re"
    ],
    "name:zho_x_preferred":[
        "\u62c9\u6ce2\u5361\u6377\u723e"
    ],
    "qs:a0":"Canada",
    "qs:a1":"*Quebec",
    "qs:a1_lc":"QC",
    "qs:a1r":"*",
    "qs:adm0":"Canada",
    "qs:id":0,
    "qs:la_lc":"*",
    "qs:level":"locality",
    "qs:loc":"La Pocati\u00e8re",
    "qs:loc_alt":"La Pocati\u00e8re",
    "qs:loc_lc":"f964896abe3111d892e2080020a0f4c9",
    "qs:pop":0,
    "qs:source":"NCanada Census",
    "qs:type":"Ville",
    "src:geom":"quattroshapes",
    "src:geom_alt":[
        "quattroshapes_pg"
    ],
    "src:lbl_centroid":"mapshaper",
    "src:population":"geonames",
    "wd:wordcount":297,
    "wof:belongsto":[
        102191575,
        85633041,
        890456817,
        136251273
    ],
    "wof:breaches":[],
    "wof:concordances":{
        "gn:id":7535692,
        "gp:id":23394298,
        "qs_pg:id":905956,
        "statcan:nid":"f964896abe3111d892e2080020a0f4c9",
        "wd:id":"Q142355",
        "wk:page":"La Pocati\u00e8re"
    },
    "wof:concordances_official":"statcan:nid",
    "wof:country":"CA",
    "wof:geom_alt":[
        "quattroshapes_pg"
    ],
    "wof:geomhash":"0345f65d299852a1b9ab92bfdc8c17a6",
    "wof:hierarchy":[
        {
            "continent_id":102191575,
            "country_id":85633041,
            "county_id":890456817,
            "locality_id":101738899,
            "region_id":136251273
        }
    ],
    "wof:id":101738899,
    "wof:lastmodified":1788900984,
    "wof:name":"La Pocati\u00e8re",
    "wof:parent_id":890456817,
    "wof:placetype":"locality",
    "wof:population":4575,
    "wof:population_rank":4,
    "wof:repo":"whosonfirst-data-admin-ca",
    "wof:superseded_by":[2048281069],
    "wof:supersedes":[],
    "wof:tags":[]
},
  "bbox": [
    -70.0773,
    47.341617,
    -70.001666,
    47.418555
],
  "geometry": {"coordinates":[[[-70.07729999999999,47.358052],[-70.076971,47.358202],[-70.07677200000001,47.358283],[-70.07646699999999,47.35839],[-70.076294,47.358515],[-70.076094,47.358613],[-70.075908,47.358711],[-70.075669,47.358863],[-70.07539,47.358943],[-70.07499199999999,47.359086],[-70.074354,47.359317],[-70.07392900000001,47.35946],[-70.07369,47.359612],[-70.073517,47.359746],[-70.07319699999999,47.360015],[-70.07283700000001,47.36031],[-70.072517,47.360606],[-70.072197,47.360892],[-70.07211700000001,47.361009],[-70.072115,47.36118],[-70.072008,47.36127],[-70.071849,47.361323],[-70.071703,47.361385],[-70.071437,47.361555],[-70.071091,47.361797],[-70.070998,47.361859],[-70.07081100000001,47.362021],[-70.07041099999999,47.362361],[-70.070105,47.362567],[-70.069839,47.362746],[-70.069412,47.363086],[-70.06896,47.363363],[-70.068574,47.363577],[-70.068095,47.363918],[-70.067656,47.364159],[-70.067283,47.364436],[-70.066697,47.364821],[-70.066311,47.365125],[-70.065871,47.365393],[-70.065552,47.365644],[-70.065206,47.365832],[-70.064819,47.366136],[-70.064487,47.36636],[-70.064167,47.366556],[-70.06315499999999,47.367236],[-70.06249,47.367656],[-70.061984,47.368014],[-70.061637,47.368256],[-70.061131,47.368632],[-70.060891,47.36882],[-70.060558,47.369115],[-70.060171,47.369483],[-70.05950300000001,47.370164],[-70.058969,47.370638],[-70.058542,47.371024],[-70.057902,47.371633],[-70.057208,47.372242],[-70.05672800000001,47.372645],[-70.056487,47.372977],[-70.056459,47.373156],[-70.05645800000001,47.373264],[-70.056378,47.373354],[-70.056245,47.373398],[-70.056059,47.373425],[-70.05586,47.373523],[-70.0557,47.373639],[-70.055593,47.373729],[-70.05542,47.373908],[-70.055139,47.374258],[-70.054845,47.374571],[-70.054711,47.374742],[-70.054709,47.374922],[-70.054709,47.375003],[-70.05470800000001,47.375066],[-70.05466800000001,47.375155],[-70.05422900000001,47.375406],[-70.05386900000001,47.375656],[-70.053629,47.375817],[-70.05342899999999,47.375969],[-70.05332199999999,47.376104],[-70.053321,47.376284],[-70.05334499999999,47.376482],[-70.05331700000001,47.376697],[-70.05332900000001,47.376868],[-70.053421,47.376959],[-70.05367099999999,47.377077],[-70.053882,47.377221],[-70.054119,47.377411],[-70.05410500000001,47.377483],[-70.05398599999999,47.37751],[-70.053854,47.377437],[-70.053511,47.377247],[-70.05322099999999,47.377093],[-70.05314199999999,47.377084],[-70.05315400000001,47.377165],[-70.05355,47.377391],[-70.053985,47.3776],[-70.054209,47.377744],[-70.054419,47.377988],[-70.054444,47.378123],[-70.05440299999999,47.378258],[-70.054309,47.378401],[-70.05412200000001,47.378572],[-70.053923,47.378706],[-70.05371,47.378822],[-70.05328299999999,47.379153],[-70.052922,47.379628],[-70.052599,47.380185],[-70.05223599999999,47.380804],[-70.05174100000001,47.381423],[-70.05152699999999,47.381701],[-70.051219,47.382069],[-70.051085,47.38223],[-70.050817,47.382634],[-70.05061499999999,47.382966],[-70.05040099999999,47.383226],[-70.050241,47.383369],[-70.05022700000001,47.383504],[-70.050093,47.383692],[-70.049986,47.383737],[-70.0498,47.383826],[-70.049786,47.38397],[-70.049904,47.384087],[-70.049903,47.38415],[-70.049677,47.384293],[-70.049476,47.384491],[-70.04922000000001,47.385056],[-70.04908500000001,47.385362],[-70.048817,47.385747],[-70.048614,47.386187],[-70.048413,47.386483],[-70.048186,47.386716],[-70.047971,47.38703],[-70.04771599999999,47.387479],[-70.047568,47.387721],[-70.047393,47.388027],[-70.047192,47.388305],[-70.047017,47.388673],[-70.046949,47.388825],[-70.046548,47.389292],[-70.046453,47.389516],[-70.046318,47.389812],[-70.046143,47.39018],[-70.045913,47.390764],[-70.04568399999999,47.391132],[-70.045469,47.391527],[-70.045148,47.391931],[-70.04446900000001,47.392342],[-70.044042,47.3927],[-70.043575,47.393067],[-70.043308,47.393228],[-70.04301599999999,47.39328],[-70.042896,47.39337],[-70.04290899999999,47.393487],[-70.04296100000001,47.393541],[-70.043173,47.39356],[-70.04345000000001,47.39366],[-70.04382,47.39385],[-70.043989,47.394139],[-70.04400099999999,47.394346],[-70.043892,47.394732],[-70.043808,47.395182],[-70.043779,47.395487],[-70.043632,47.395604],[-70.04335399999999,47.395603],[-70.043235,47.39562],[-70.043246,47.395791],[-70.043272,47.395854],[-70.04333699999999,47.396007],[-70.043336,47.396169],[-70.04324099999999,47.396421],[-70.04318600000001,47.396681],[-70.04291600000001,47.39722],[-70.04284800000001,47.397391],[-70.04284699999999,47.397589],[-70.042751,47.397975],[-70.04274700000001,47.398434],[-70.04281,47.398758],[-70.042793,47.399208],[-70.042776,47.399675],[-70.042745,47.400134],[-70.04273000000001,47.400359],[-70.04263400000001,47.400763],[-70.042592,47.401006],[-70.04255000000001,47.401303],[-70.042388,47.401653],[-70.04219999999999,47.40194],[-70.042198,47.402075],[-70.042171,47.402183],[-70.042064,47.402263],[-70.042089,47.402443],[-70.04216700000001,47.40265],[-70.042258,47.402876],[-70.04222900000001,47.40319],[-70.042306,47.403398],[-70.042238,47.403685],[-70.042182,47.403991],[-70.042153,47.404278],[-70.042125,47.404467],[-70.042163,47.404629],[-70.04222799999999,47.40481],[-70.042158,47.40525],[-70.042075,47.405672],[-70.042006,47.405951],[-70.041977,47.406203],[-70.042001,47.406482],[-70.041946,47.406697],[-70.04193100000001,47.406895],[-70.041996,47.407066],[-70.042061,47.407238],[-70.042033,47.40739],[-70.04195199999999,47.407606],[-70.04182900000001,47.407983],[-70.041853,47.408262],[-70.041838,47.408514],[-70.041769,47.408766],[-70.041608,47.409062],[-70.04161999999999,47.409224],[-70.04156500000001,47.409395],[-70.041572,47.409405],[-70.04035399999999,47.409409],[-70.03909899999999,47.409426],[-70.037459,47.409446],[-70.035585,47.40947],[-70.033444,47.409484],[-70.032859,47.409488],[-70.03274399999999,47.409488],[-70.03177700000001,47.409494],[-70.031283,47.409555],[-70.031244,47.409559],[-70.028564,47.40997],[-70.027967,47.410048],[-70.02755999999999,47.410114],[-70.027168,47.410173],[-70.026732,47.410238],[-70.02638399999999,47.41029],[-70.026055,47.410338],[-70.02569800000001,47.410393],[-70.02517400000001,47.410475],[-70.024581,47.410565],[-70.024072,47.410633],[-70.023843,47.410672],[-70.02376,47.410691],[-70.02366000000001,47.410705],[-70.02349700000001,47.410726],[-70.02347899999999,47.410732],[-70.023461,47.410739],[-70.023443,47.410745],[-70.023425,47.410751],[-70.023408,47.410757],[-70.02339000000001,47.410763],[-70.02337199999999,47.41077],[-70.023354,47.410776],[-70.023336,47.410782],[-70.023319,47.410788],[-70.023301,47.410795],[-70.02328300000001,47.410801],[-70.02326600000001,47.410807],[-70.023248,47.410814],[-70.02323,47.41082],[-70.023213,47.410827],[-70.023195,47.410833],[-70.023177,47.41084],[-70.02316,47.410846],[-70.02314200000001,47.410853],[-70.02312499999999,47.410859],[-70.023107,47.410866],[-70.02309,47.410872],[-70.023072,47.410879],[-70.023055,47.410886],[-70.023037,47.410892],[-70.02302,47.410899],[-70.023014,47.410901],[-70.023008,47.410904],[-70.02300200000001,47.410906],[-70.02299600000001,47.410908],[-70.022991,47.410911],[-70.02298500000001,47.410913],[-70.02297900000001,47.410915],[-70.02297299999999,47.410918],[-70.02296699999999,47.41092],[-70.02296200000001,47.410923],[-70.02295599999999,47.410925],[-70.02294999999999,47.410928],[-70.02294500000001,47.41093],[-70.02293899999999,47.410933],[-70.02293299999999,47.410936],[-70.02292799999999,47.410938],[-70.02292199999999,47.410941],[-70.02291700000001,47.410943],[-70.02291099999999,47.410946],[-70.02290600000001,47.410949],[-70.02290000000001,47.410951],[-70.02289500000001,47.410954],[-70.02288900000001,47.410957],[-70.022884,47.41096],[-70.02287800000001,47.410962],[-70.022873,47.410965],[-70.022868,47.410968],[-70.022862,47.410971],[-70.022857,47.410974],[-70.022852,47.410977],[-70.022846,47.41098],[-70.022841,47.410983],[-70.022836,47.410985],[-70.022831,47.410988],[-70.022825,47.410991],[-70.02282,47.410994],[-70.02281499999999,47.410997],[-70.02281000000001,47.411],[-70.02280500000001,47.411004],[-70.0228,47.411007],[-70.022795,47.41101],[-70.02279,47.411013],[-70.022785,47.411016],[-70.02278,47.411019],[-70.022775,47.411022],[-70.02276999999999,47.411025],[-70.02276500000001,47.411029],[-70.02276000000001,47.411032],[-70.022756,47.411035],[-70.022751,47.411038],[-70.022746,47.411042],[-70.022741,47.411045],[-70.02273700000001,47.411048],[-70.022732,47.411052],[-70.022727,47.411055],[-70.022723,47.411058],[-70.022718,47.411062],[-70.022713,47.411065],[-70.02270900000001,47.411069],[-70.022704,47.411072],[-70.0227,47.411075],[-70.022695,47.411079],[-70.02269099999999,47.411082],[-70.02268599999999,47.411086],[-70.022682,47.411089],[-70.022678,47.411093],[-70.022673,47.411096],[-70.02266899999999,47.4111],[-70.022665,47.411104],[-70.02266,47.411107],[-70.022656,47.411111],[-70.02265199999999,47.411114],[-70.022648,47.411118],[-70.022644,47.411122],[-70.02264,47.411125],[-70.02263600000001,47.411129],[-70.022632,47.411133],[-70.022628,47.411137],[-70.02262399999999,47.41114],[-70.02262,47.411144],[-70.022616,47.411148],[-70.022612,47.411152],[-70.02260800000001,47.411155],[-70.022604,47.411159],[-70.0226,47.411163],[-70.022597,47.411167],[-70.022593,47.411171],[-70.022589,47.411174],[-70.02258500000001,47.411178],[-70.022582,47.411182],[-70.022578,47.411186],[-70.022575,47.41119],[-70.022571,47.411194],[-70.022567,47.411198],[-70.022564,47.411202],[-70.022561,47.411206],[-70.02255700000001,47.41121],[-70.022554,47.411214],[-70.02255,47.411218],[-70.022547,47.411222],[-70.022544,47.411226],[-70.02254000000001,47.41123],[-70.022537,47.411234],[-70.02253399999999,47.411238],[-70.022531,47.411242],[-70.02252799999999,47.411246],[-70.022525,47.41125],[-70.022522,47.411254],[-70.022519,47.411259],[-70.022516,47.411263],[-70.022513,47.411267],[-70.02251,47.411271],[-70.022507,47.411275],[-70.022504,47.411279],[-70.02250100000001,47.411284],[-70.022498,47.411288],[-70.02249500000001,47.411292],[-70.022493,47.411296],[-70.02249,47.4113],[-70.022487,47.411305],[-70.022485,47.411309],[-70.022482,47.411313],[-70.02248,47.411317],[-70.02247699999999,47.411322],[-70.022475,47.411326],[-70.02247199999999,47.41133],[-70.02247,47.411335],[-70.02246700000001,47.411339],[-70.022465,47.411343],[-70.022463,47.411348],[-70.02246,47.411352],[-70.022458,47.411356],[-70.02245600000001,47.411361],[-70.022454,47.411365],[-70.022452,47.411369],[-70.02245000000001,47.411374],[-70.022447,47.411378],[-70.022445,47.411383],[-70.022443,47.411387],[-70.022441,47.411391],[-70.02244,47.411396],[-70.02243799999999,47.4114],[-70.022436,47.411405],[-70.022434,47.411409],[-70.02243199999999,47.411414],[-70.02243,47.411418],[-70.022429,47.411422],[-70.02242699999999,47.411427],[-70.022425,47.411431],[-70.022424,47.411436],[-70.02242200000001,47.41144],[-70.02242099999999,47.411445],[-70.022419,47.411449],[-70.022418,47.411454],[-70.02241600000001,47.411458],[-70.022415,47.411463],[-70.022414,47.411467],[-70.022412,47.411472],[-70.02241100000001,47.411476],[-70.02240999999999,47.411481],[-70.022409,47.411483],[-70.022408,47.411488],[-70.02233200000001,47.411781],[-70.022076,47.41182],[-70.02204500000001,47.41194],[-70.022043,47.411948],[-70.022042,47.411954],[-70.02204,47.411962],[-70.022037,47.41197],[-70.022035,47.411978],[-70.02203299999999,47.411986],[-70.02203,47.411994],[-70.02202800000001,47.412003],[-70.022026,47.412011],[-70.022023,47.412019],[-70.022021,47.412027],[-70.022018,47.412035],[-70.02201599999999,47.412043],[-70.022013,47.412051],[-70.02200999999999,47.412059],[-70.022008,47.412067],[-70.02200499999999,47.412076],[-70.022002,47.412084],[-70.02200000000001,47.412092],[-70.021997,47.4121],[-70.02199400000001,47.412108],[-70.021991,47.412116],[-70.02198799999999,47.412124],[-70.021985,47.412132],[-70.02198199999999,47.41214],[-70.021979,47.412148],[-70.021976,47.412156],[-70.021973,47.412164],[-70.02197,47.412172],[-70.021967,47.41218],[-70.021964,47.412188],[-70.02196000000001,47.412196],[-70.021957,47.412204],[-70.02195399999999,47.412212],[-70.02195,47.41222],[-70.021947,47.412228],[-70.021944,47.412236],[-70.02194,47.412244],[-70.02193699999999,47.412252],[-70.021933,47.41226],[-70.02193,47.412268],[-70.02192599999999,47.412276],[-70.021922,47.412284],[-70.021919,47.412292],[-70.02191500000001,47.4123],[-70.021911,47.412307],[-70.021908,47.412315],[-70.02190400000001,47.412323],[-70.0219,47.412331],[-70.021896,47.412339],[-70.02189199999999,47.412347],[-70.021888,47.412355],[-70.021884,47.412363],[-70.02188,47.41237],[-70.02187600000001,47.412378],[-70.021872,47.412386],[-70.021868,47.412394],[-70.02186399999999,47.412402],[-70.02186,47.412409],[-70.021855,47.412417],[-70.021851,47.412425],[-70.02184699999999,47.412433],[-70.021843,47.412441],[-70.021838,47.412448],[-70.021834,47.412456],[-70.021829,47.412464],[-70.02182500000001,47.412471],[-70.02182000000001,47.412479],[-70.021816,47.412487],[-70.021811,47.412495],[-70.021807,47.412502],[-70.02180199999999,47.41251],[-70.02179700000001,47.412518],[-70.021793,47.412525],[-70.021788,47.412533],[-70.021783,47.412541],[-70.021778,47.412548],[-70.02177399999999,47.412556],[-70.02176900000001,47.412563],[-70.021764,47.412571],[-70.021759,47.412579],[-70.021754,47.412586],[-70.021749,47.412594],[-70.021744,47.412601],[-70.021739,47.412609],[-70.021734,47.412616],[-70.021728,47.412624],[-70.02172299999999,47.412631],[-70.02171800000001,47.412639],[-70.02171300000001,47.412646],[-70.021708,47.412654],[-70.021702,47.412661],[-70.021697,47.412669],[-70.021691,47.412676],[-70.021686,47.412684],[-70.021681,47.412691],[-70.021675,47.412699],[-70.02167,47.412706],[-70.021664,47.412713],[-70.021658,47.412721],[-70.021653,47.412728],[-70.021647,47.412735],[-70.021642,47.412743],[-70.021636,47.41275],[-70.02163,47.412757],[-70.021624,47.412765],[-70.021618,47.412772],[-70.021613,47.412779],[-70.021607,47.412787],[-70.021601,47.412794],[-70.021595,47.412801],[-70.02158900000001,47.412808],[-70.02158300000001,47.412816],[-70.02157699999999,47.412823],[-70.02157099999999,47.41283],[-70.021565,47.412837],[-70.021559,47.412844],[-70.021552,47.412852],[-70.021546,47.412859],[-70.02154,47.412866],[-70.021534,47.412873],[-70.02152700000001,47.41288],[-70.02152100000001,47.412887],[-70.02151499999999,47.412894],[-70.021508,47.412901],[-70.021502,47.412908],[-70.021496,47.412915],[-70.021489,47.412922],[-70.021483,47.412929],[-70.02147600000001,47.412936],[-70.021469,47.412943],[-70.021463,47.41295],[-70.021456,47.412957],[-70.021449,47.412964],[-70.021443,47.412971],[-70.02143599999999,47.412978],[-70.021429,47.412985],[-70.021422,47.412992],[-70.021416,47.412999],[-70.02140900000001,47.413006],[-70.02140199999999,47.413013],[-70.021395,47.413019],[-70.021388,47.413026],[-70.02138100000001,47.413033],[-70.02137399999999,47.41304],[-70.021367,47.413047],[-70.02136,47.413053],[-70.021353,47.41306],[-70.02134599999999,47.413067],[-70.021339,47.413074],[-70.021331,47.41308],[-70.02132400000001,47.413087],[-70.021317,47.413094],[-70.02131,47.4131],[-70.02130200000001,47.413107],[-70.02129499999999,47.413114],[-70.021288,47.41312],[-70.02128,47.413127],[-70.02127299999999,47.413133],[-70.021265,47.41314],[-70.021258,47.413147],[-70.02124999999999,47.413153],[-70.021243,47.41316],[-70.021235,47.413166],[-70.02122799999999,47.413173],[-70.02122,47.413179],[-70.02121200000001,47.413186],[-70.02120499999999,47.413192],[-70.021197,47.413198],[-70.02118900000001,47.413205],[-70.021181,47.413211],[-70.021174,47.413218],[-70.02116599999999,47.413224],[-70.021158,47.41323],[-70.02115000000001,47.413237],[-70.021142,47.413243],[-70.021134,47.413249],[-70.021126,47.413256],[-70.021118,47.413262],[-70.02110999999999,47.413268],[-70.021102,47.413274],[-70.02109400000001,47.413281],[-70.021086,47.413287],[-70.021078,47.413293],[-70.021069,47.413299],[-70.021061,47.413305],[-70.02105299999999,47.413311],[-70.021045,47.413318],[-70.02103700000001,47.413324],[-70.021028,47.41333],[-70.02101999999999,47.413336],[-70.021012,47.413342],[-70.02100299999999,47.413348],[-70.020995,47.413354],[-70.02098599999999,47.41336],[-70.020978,47.413366],[-70.02096899999999,47.413372],[-70.020961,47.413378],[-70.02095199999999,47.413384],[-70.020944,47.41339],[-70.02093499999999,47.413396],[-70.020926,47.413401],[-70.02091799999999,47.413407],[-70.020915,47.413409],[-70.02090699999999,47.413415],[-70.020898,47.413421],[-70.020889,47.413426],[-70.020881,47.413432],[-70.020872,47.413438],[-70.02086300000001,47.413444],[-70.020854,47.413449],[-70.02084499999999,47.413455],[-70.020836,47.413461],[-70.020827,47.413466],[-70.02081800000001,47.413472],[-70.020809,47.413478],[-70.02079999999999,47.413483],[-70.020791,47.413489],[-70.020782,47.413494],[-70.02077300000001,47.4135],[-70.020764,47.413506],[-70.02075499999999,47.413511],[-70.020746,47.413517],[-70.020737,47.413522],[-70.02072800000001,47.413528],[-70.020718,47.413533],[-70.020709,47.413538],[-70.02070000000001,47.413544],[-70.020691,47.413549],[-70.020681,47.413555],[-70.020672,47.41356],[-70.020663,47.413565],[-70.020653,47.413571],[-70.020644,47.413576],[-70.020634,47.413581],[-70.020625,47.413586],[-70.02061500000001,47.413592],[-70.020606,47.413597],[-70.020596,47.413602],[-70.02058700000001,47.413607],[-70.020577,47.413612],[-70.020568,47.413617],[-70.02055799999999,47.413623],[-70.02054800000001,47.413628],[-70.020539,47.413633],[-70.020529,47.413638],[-70.02051899999999,47.413643],[-70.02051,47.413648],[-70.0205,47.413653],[-70.020382,47.413576],[-70.02037300000001,47.41358],[-70.020365,47.413585],[-70.020355,47.413589],[-70.02034500000001,47.413594],[-70.020335,47.413599],[-70.020326,47.413604],[-70.02031599999999,47.413608],[-70.02030600000001,47.413613],[-70.020296,47.413618],[-70.020287,47.413622],[-70.02027699999999,47.413627],[-70.020267,47.413632],[-70.020257,47.413636],[-70.020247,47.413641],[-70.02023699999999,47.413645],[-70.02022700000001,47.41365],[-70.020217,47.413654],[-70.020207,47.413659],[-70.020197,47.413663],[-70.02018700000001,47.413668],[-70.020177,47.413672],[-70.020167,47.413676],[-70.020157,47.413681],[-70.02014699999999,47.413685],[-70.02013700000001,47.41369],[-70.020127,47.413694],[-70.020117,47.413698],[-70.020106,47.413702],[-70.020096,47.413707],[-70.02008600000001,47.413711],[-70.020076,47.413715],[-70.020065,47.413719],[-70.020055,47.413723],[-70.020045,47.413728],[-70.020034,47.413732],[-70.02002400000001,47.413736],[-70.020014,47.41374],[-70.020003,47.413744],[-70.019993,47.413748],[-70.019983,47.413752],[-70.019972,47.413756],[-70.01996200000001,47.41376],[-70.01995100000001,47.413764],[-70.019941,47.413768],[-70.01993,47.413772],[-70.01992,47.413776],[-70.019909,47.413779],[-70.019899,47.413783],[-70.01989500000001,47.413785],[-70.019885,47.413788],[-70.019874,47.413792],[-70.019863,47.413796],[-70.019853,47.4138],[-70.019842,47.413803],[-70.019831,47.413807],[-70.01982099999999,47.413811],[-70.01981000000001,47.413814],[-70.01979900000001,47.413818],[-70.019789,47.413822],[-70.019778,47.413825],[-70.019767,47.413829],[-70.019756,47.413832],[-70.019746,47.413836],[-70.019735,47.413839],[-70.019724,47.413843],[-70.019713,47.413846],[-70.019702,47.41385],[-70.01969099999999,47.413853],[-70.01967999999999,47.413856],[-70.01967,47.41386],[-70.019659,47.413863],[-70.019648,47.413866],[-70.019637,47.41387],[-70.019626,47.413873],[-70.019615,47.413876],[-70.019604,47.413879],[-70.019593,47.413883],[-70.019582,47.413886],[-70.019571,47.413889],[-70.01956,47.413892],[-70.019549,47.413895],[-70.019538,47.413898],[-70.019526,47.413901],[-70.019515,47.413904],[-70.019504,47.413907],[-70.019493,47.41391],[-70.019482,47.413913],[-70.019471,47.413916],[-70.01946,47.413919],[-70.019448,47.413922],[-70.019437,47.413925],[-70.019426,47.413928],[-70.019415,47.413931],[-70.019403,47.413933],[-70.019392,47.413936],[-70.019381,47.413939],[-70.01937,47.413942],[-70.019358,47.413944],[-70.019347,47.413947],[-70.022716,47.416167],[-70.02244399999999,47.416436],[-70.02240999999999,47.416546],[-70.02233200000001,47.41752],[-70.02066499999999,47.418555],[-70.017111,47.416212],[-70.016657,47.415919],[-70.01653,47.415837],[-70.016487,47.416363],[-70.01636000000001,47.41628],[-70.011662,47.413196],[-70.011329,47.412978],[-70.010417,47.412379],[-70.010599,47.412329],[-70.010251,47.412099],[-70.01026,47.412097],[-70.01026899999999,47.412094],[-70.01029,47.412088],[-70.010312,47.412082],[-70.010334,47.412076],[-70.010355,47.41207],[-70.010358,47.412069],[-70.010379,47.412063],[-70.01039,47.41206],[-70.010401,47.412056],[-70.010412,47.412053],[-70.010423,47.41205],[-70.010434,47.412047],[-70.010445,47.412043],[-70.010456,47.41204],[-70.01046700000001,47.412037],[-70.01047800000001,47.412033],[-70.01048900000001,47.41203],[-70.010499,47.412026],[-70.01051,47.412023],[-70.010521,47.41202],[-70.010532,47.412016],[-70.010543,47.412013],[-70.010553,47.412009],[-70.010564,47.412005],[-70.010575,47.412002],[-70.010586,47.411998],[-70.01059600000001,47.411995],[-70.01060699999999,47.411991],[-70.01061799999999,47.411987],[-70.010628,47.411984],[-70.010639,47.41198],[-70.010649,47.411976],[-70.01066,47.411972],[-70.010671,47.411969],[-70.01068100000001,47.411965],[-70.01069200000001,47.411961],[-70.01070199999999,47.411957],[-70.010713,47.411953],[-70.010723,47.411949],[-70.010734,47.411946],[-70.010744,47.411942],[-70.010755,47.411938],[-70.01076500000001,47.411934],[-70.010775,47.41193],[-70.010786,47.411926],[-70.010796,47.411922],[-70.010807,47.411918],[-70.010817,47.411913],[-70.01082700000001,47.411909],[-70.01083300000001,47.411907],[-70.01084299999999,47.411903],[-70.010848,47.411901],[-70.010858,47.411897],[-70.010864,47.411894],[-70.01087099999999,47.411891],[-70.01087800000001,47.411889],[-70.010884,47.411886],[-70.010891,47.411883],[-70.010898,47.41188],[-70.010904,47.411877],[-70.01091099999999,47.411874],[-70.01091700000001,47.411871],[-70.010924,47.411868],[-70.01093,47.411865],[-70.010937,47.411863],[-70.010943,47.41186],[-70.01094999999999,47.411856],[-70.01095599999999,47.411853],[-70.01096200000001,47.41185],[-70.010969,47.411847],[-70.010975,47.411844],[-70.010981,47.411841],[-70.010988,47.411838],[-70.010994,47.411835],[-70.011,47.411832],[-70.01100599999999,47.411828],[-70.01101300000001,47.411825],[-70.011019,47.411822],[-70.011025,47.411819],[-70.011031,47.411815],[-70.011037,47.411812],[-70.011043,47.411809],[-70.011049,47.411805],[-70.011055,47.411802],[-70.011061,47.411799],[-70.011067,47.411795],[-70.011073,47.411792],[-70.011079,47.411788],[-70.01108499999999,47.411785],[-70.01109099999999,47.411781],[-70.01109700000001,47.411778],[-70.01110300000001,47.411774],[-70.011109,47.411771],[-70.011115,47.411767],[-70.01112000000001,47.411764],[-70.011126,47.41176],[-70.011132,47.411756],[-70.01113700000001,47.411753],[-70.011143,47.411749],[-70.011149,47.411746],[-70.011154,47.411742],[-70.01116,47.411738],[-70.011166,47.411734],[-70.011171,47.411731],[-70.011177,47.411727],[-70.01118200000001,47.411723],[-70.011188,47.411719],[-70.01119300000001,47.411716],[-70.01119799999999,47.411712],[-70.01120400000001,47.411708],[-70.01120899999999,47.411704],[-70.01121500000001,47.4117],[-70.01121999999999,47.411696],[-70.011225,47.411692],[-70.01123,47.411688],[-70.011236,47.411684],[-70.011241,47.41168],[-70.011246,47.411676],[-70.011251,47.411673],[-70.011256,47.411668],[-70.011261,47.411664],[-70.01126600000001,47.41166],[-70.01127099999999,47.411656],[-70.011276,47.411652],[-70.011281,47.411648],[-70.011286,47.411644],[-70.011291,47.41164],[-70.011296,47.411636],[-70.011301,47.411632],[-70.011306,47.411627],[-70.01131100000001,47.411623],[-70.011315,47.411619],[-70.01132,47.411615],[-70.011325,47.411611],[-70.011329,47.411606],[-70.01133400000001,47.411602],[-70.01133900000001,47.411598],[-70.011343,47.411594],[-70.011348,47.411589],[-70.011352,47.411585],[-70.011357,47.411581],[-70.01136099999999,47.411576],[-70.011366,47.411572],[-70.01137,47.411567],[-70.011375,47.411563],[-70.01137900000001,47.411559],[-70.011383,47.411554],[-70.011388,47.41155],[-70.011392,47.411545],[-70.011396,47.411541],[-70.01139999999999,47.411536],[-70.011404,47.411532],[-70.011409,47.411527],[-70.011413,47.411523],[-70.01141699999999,47.411518],[-70.011421,47.411514],[-70.011425,47.411509],[-70.01142900000001,47.411505],[-70.011433,47.4115],[-70.011437,47.411495],[-70.01143999999999,47.411491],[-70.011444,47.411486],[-70.011448,47.411482],[-70.01145200000001,47.411477],[-70.011456,47.411472],[-70.011459,47.411468],[-70.01146300000001,47.411463],[-70.011467,47.411458],[-70.01147,47.411454],[-70.011471,47.411452],[-70.011475,47.411447],[-70.01105099999999,47.411165],[-70.01125999999999,47.411018],[-70.011751,47.410671],[-70.011866,47.410232],[-70.01186800000001,47.410224],[-70.011869,47.410218],[-70.011871,47.41021],[-70.01187400000001,47.410203],[-70.011876,47.410195],[-70.011878,47.410187],[-70.01188,47.410179],[-70.011883,47.410171],[-70.01188500000001,47.410164],[-70.011887,47.410156],[-70.01188999999999,47.410148],[-70.011892,47.41014],[-70.011895,47.410133],[-70.011897,47.410125],[-70.0119,47.410117],[-70.01190200000001,47.410109],[-70.011905,47.410101],[-70.01190800000001,47.410094],[-70.01191,47.410086],[-70.01191300000001,47.410078],[-70.011916,47.410071],[-70.01191900000001,47.410063],[-70.011922,47.410055],[-70.01192500000001,47.410047],[-70.011928,47.41004],[-70.011931,47.410032],[-70.011934,47.410024],[-70.011937,47.410017],[-70.01194,47.410009],[-70.011943,47.410001],[-70.01194599999999,47.409994],[-70.011949,47.409986],[-70.01195199999999,47.409978],[-70.011956,47.409971],[-70.011959,47.409963],[-70.011962,47.409955],[-70.011965,47.409948],[-70.01196899999999,47.40994],[-70.011972,47.409933],[-70.011976,47.409925],[-70.011979,47.409917],[-70.011983,47.40991],[-70.01198599999999,47.409902],[-70.01199,47.409895],[-70.011994,47.409887],[-70.01199699999999,47.409879],[-70.012001,47.409872],[-70.012005,47.409864],[-70.01200900000001,47.409857],[-70.012012,47.409849],[-70.012016,47.409842],[-70.01202000000001,47.409834],[-70.012024,47.409827],[-70.012028,47.409819],[-70.012032,47.409812],[-70.01203599999999,47.409804],[-70.01204,47.409797],[-70.012044,47.409789],[-70.01204799999999,47.409782],[-70.012052,47.409775],[-70.012057,47.409767],[-70.012061,47.40976],[-70.01206500000001,47.409752],[-70.012069,47.409745],[-70.012074,47.409738],[-70.012078,47.40973],[-70.012083,47.409723],[-70.01208699999999,47.409715],[-70.012092,47.409708],[-70.012096,47.409701],[-70.012101,47.409693],[-70.01210500000001,47.409686],[-70.01211000000001,47.409679],[-70.012114,47.409671],[-70.012119,47.409664],[-70.012124,47.409657],[-70.012129,47.40965],[-70.01213300000001,47.409642],[-70.01213799999999,47.409635],[-70.01214299999999,47.409628],[-70.012148,47.409621],[-70.012153,47.409613],[-70.01215500000001,47.409611],[-70.01215999999999,47.409604],[-70.012165,47.409596],[-70.01217,47.409589],[-70.012175,47.409582],[-70.01218,47.409575],[-70.012185,47.409568],[-70.01219,47.409561],[-70.01219500000001,47.409553],[-70.01220000000001,47.409546],[-70.01220600000001,47.409539],[-70.01221099999999,47.409532],[-70.012216,47.409525],[-70.01222199999999,47.409518],[-70.012227,47.409511],[-70.01223299999999,47.409504],[-70.012238,47.409497],[-70.012243,47.40949],[-70.012249,47.409483],[-70.012255,47.409476],[-70.01226,47.409469],[-70.012266,47.409462],[-70.012271,47.409455],[-70.012277,47.409448],[-70.012283,47.409441],[-70.012289,47.409434],[-70.012294,47.409427],[-70.0123,47.40942],[-70.012306,47.409413],[-70.01231199999999,47.409406],[-70.01231799999999,47.4094],[-70.01232400000001,47.409393],[-70.01233000000001,47.409386],[-70.012336,47.409379],[-70.012342,47.409372],[-70.012348,47.409365],[-70.012354,47.409359],[-70.01236,47.409352],[-70.012366,47.409345],[-70.012373,47.409338],[-70.012379,47.409332],[-70.01238499999999,47.409325],[-70.01239099999999,47.409318],[-70.012398,47.409311],[-70.012404,47.409305],[-70.01241,47.409298],[-70.012417,47.409291],[-70.012423,47.409285],[-70.01242999999999,47.409278],[-70.01243599999999,47.409272],[-70.012443,47.409265],[-70.012449,47.409258],[-70.012456,47.409252],[-70.012463,47.409245],[-70.012469,47.409239],[-70.01247600000001,47.409232],[-70.012483,47.409226],[-70.01249,47.409219],[-70.012496,47.409213],[-70.012503,47.409206],[-70.01251000000001,47.4092],[-70.012517,47.409193],[-70.012524,47.409187],[-70.012531,47.409181],[-70.01253800000001,47.409174],[-70.012545,47.409168],[-70.012552,47.409161],[-70.012559,47.409155],[-70.01256600000001,47.409149],[-70.012573,47.409142],[-70.01258,47.409136],[-70.012587,47.40913],[-70.01259400000001,47.409123],[-70.012602,47.409117],[-70.012609,47.409111],[-70.01261599999999,47.409105],[-70.012624,47.409099],[-70.012631,47.409092],[-70.012638,47.409086],[-70.012646,47.40908],[-70.012653,47.409074],[-70.01266099999999,47.409068],[-70.01266800000001,47.409062],[-70.012676,47.409055],[-70.012683,47.409049],[-70.012691,47.409043],[-70.012698,47.409037],[-70.01270599999999,47.409031],[-70.012714,47.409025],[-70.012721,47.409019],[-70.01272899999999,47.409013],[-70.012737,47.409007],[-70.012745,47.409001],[-70.012749,47.408998],[-70.01275699999999,47.408992],[-70.012765,47.408986],[-70.012773,47.40898],[-70.012781,47.408974],[-70.012789,47.408968],[-70.01279700000001,47.408962],[-70.012805,47.408957],[-70.01281299999999,47.408951],[-70.012821,47.408945],[-70.012829,47.408939],[-70.012837,47.408933],[-70.012845,47.408928],[-70.01285300000001,47.408922],[-70.012861,47.408916],[-70.01287000000001,47.408911],[-70.012878,47.408905],[-70.01288599999999,47.408899],[-70.012894,47.408894],[-70.01290299999999,47.408888],[-70.012911,47.408882],[-70.012919,47.408877],[-70.012928,47.408871],[-70.012936,47.408866],[-70.012945,47.40886],[-70.012953,47.408855],[-70.012961,47.408849],[-70.01297,47.408844],[-70.012979,47.408838],[-70.012987,47.408833],[-70.012996,47.408827],[-70.013004,47.408822],[-70.013013,47.408817],[-70.01302200000001,47.408811],[-70.01303,47.408806],[-70.01303900000001,47.408801],[-70.013048,47.408795],[-70.01305600000001,47.40879],[-70.013065,47.408785],[-70.013074,47.40878],[-70.01308299999999,47.408774],[-70.013092,47.408769],[-70.01310100000001,47.408764],[-70.01311,47.408759],[-70.013119,47.408754],[-70.013127,47.408749],[-70.013136,47.408743],[-70.01314499999999,47.408738],[-70.013154,47.408733],[-70.013164,47.408728],[-70.01317299999999,47.408723],[-70.013182,47.408718],[-70.01319100000001,47.408713],[-70.0132,47.408708],[-70.013209,47.408703],[-70.01321799999999,47.408698],[-70.013228,47.408693],[-70.013237,47.408688],[-70.013246,47.408684],[-70.013255,47.408679],[-70.013265,47.408674],[-70.013274,47.408669],[-70.013283,47.408664],[-70.013293,47.40866],[-70.013302,47.408655],[-70.013311,47.40865],[-70.013321,47.408645],[-70.01333,47.408641],[-70.01334,47.408636],[-70.01334900000001,47.408631],[-70.01335899999999,47.408627],[-70.013368,47.408622],[-70.013378,47.408617],[-70.01338800000001,47.408613],[-70.013397,47.408608],[-70.013407,47.408604],[-70.013417,47.408599],[-70.013426,47.408595],[-70.013436,47.40859],[-70.013446,47.408586],[-70.01345499999999,47.408581],[-70.013465,47.408577],[-70.013475,47.408573],[-70.013485,47.408568],[-70.01349500000001,47.408564],[-70.013504,47.40856],[-70.013514,47.408555],[-70.013524,47.408551],[-70.01353400000001,47.408547],[-70.013544,47.408543],[-70.013554,47.408538],[-70.013564,47.408534],[-70.01357400000001,47.40853],[-70.01358399999999,47.408526],[-70.013594,47.408522],[-70.013604,47.408518],[-70.013614,47.408513],[-70.01362399999999,47.408509],[-70.013634,47.408505],[-70.013644,47.408501],[-70.013654,47.408497],[-70.01366400000001,47.408493],[-70.01367500000001,47.408489],[-70.013685,47.408485],[-70.013695,47.408482],[-70.013705,47.408478],[-70.013715,47.408474],[-70.01372600000001,47.40847],[-70.009108,47.405309],[-70.001666,47.400249],[-70.002921,47.398809],[-70.00341299999999,47.398238],[-70.00349,47.398148],[-70.003952,47.397597],[-70.004079,47.397444],[-70.004561,47.396873],[-70.00513100000001,47.396198],[-70.005736,47.395482],[-70.00633500000001,47.394772],[-70.006935,47.394063],[-70.007057,47.393918],[-70.00753899999999,47.393357],[-70.007915,47.39292],[-70.00839499999999,47.392351],[-70.009187,47.391413],[-70.00949900000001,47.391043],[-70.009902,47.390562],[-70.009851,47.389381],[-70.00984699999999,47.389273],[-70.009788,47.388214],[-70.009776,47.387393],[-70.009773,47.387135],[-70.009719,47.385964],[-70.00969000000001,47.385156],[-70.00968,47.384767],[-70.009693,47.384371],[-70.009714,47.384025],[-70.009704,47.38371],[-70.00973500000001,47.383492],[-70.009727,47.383424],[-70.009708,47.383287],[-70.010042,47.382368],[-70.01003300000001,47.382184],[-70.01013500000001,47.382031],[-70.010228,47.381894],[-70.010237,47.38186],[-70.010238,47.381819],[-70.01026,47.381801],[-70.010372,47.381453],[-70.01079,47.380483],[-70.010822,47.380395],[-70.010876,47.380245],[-70.010941,47.380063],[-70.01117499999999,47.37938],[-70.01145,47.378548],[-70.01158700000001,47.378091],[-70.012581,47.375224],[-70.01372000000001,47.373683],[-70.01392,47.373425],[-70.01407500000001,47.373191],[-70.014257,47.372947],[-70.014594,47.372555],[-70.01499699999999,47.372088],[-70.01528999999999,47.371815],[-70.01540300000001,47.371755],[-70.01606200000001,47.371056],[-70.016104,47.371058],[-70.01615200000001,47.371048],[-70.016203,47.37103],[-70.016284,47.370998],[-70.01633,47.370976],[-70.016351,47.370944],[-70.016358,47.3709],[-70.01635400000001,47.370816],[-70.01632499999999,47.370746],[-70.01625799999999,47.370624],[-70.01618999999999,47.370532],[-70.01615200000001,47.370465],[-70.016131,47.370428],[-70.01610700000001,47.370335],[-70.01610700000001,47.370327],[-70.016137,47.370196],[-70.016165,47.370115],[-70.01621900000001,47.370007],[-70.016273,47.369845],[-70.01634,47.369747],[-70.016434,47.369648],[-70.016541,47.369514],[-70.016595,47.369433],[-70.016688,47.369352],[-70.016835,47.369227],[-70.01692799999999,47.369129],[-70.01703500000001,47.369039],[-70.017155,47.368968],[-70.017235,47.368905],[-70.01735499999999,47.368789],[-70.017475,47.368681],[-70.01756899999999,47.368556],[-70.01767700000001,47.368394],[-70.017824,47.368233],[-70.01795799999999,47.368053],[-70.018052,47.367928],[-70.018159,47.36782],[-70.018252,47.367731],[-70.018399,47.367633],[-70.01853199999999,47.367534],[-70.01867900000001,47.367427],[-70.018772,47.367373],[-70.018878,47.367329],[-70.01901100000001,47.367284],[-70.01917,47.36724],[-70.019277,47.367186],[-70.019423,47.367115],[-70.01959600000001,47.367026],[-70.019729,47.366945],[-70.019915,47.366847],[-70.020115,47.366749],[-70.020248,47.366678],[-70.020341,47.366606],[-70.02043399999999,47.366535],[-70.020528,47.366445],[-70.020608,47.366346],[-70.02064300000001,47.366269],[-70.020652,47.366253],[-70.020707,47.36615],[-70.02077800000001,47.366037],[-70.02086799999999,47.365925],[-70.021061,47.365726],[-70.021237,47.365553],[-70.021621,47.365174],[-70.021647,47.365151],[-70.02192599999999,47.364895],[-70.022209,47.364635],[-70.022665,47.364217],[-70.023149,47.36378],[-70.023515,47.36345],[-70.02351899999999,47.363446],[-70.02343399999999,47.363387],[-70.023122,47.363173],[-70.023071,47.363138],[-70.02355,47.36274],[-70.024029,47.362346],[-70.024159,47.362247],[-70.024568,47.361997],[-70.025188,47.36163],[-70.02595599999999,47.361142],[-70.02707700000001,47.360464],[-70.027888,47.35997],[-70.028351,47.359691],[-70.028845,47.359397],[-70.028306,47.359],[-70.02833099999999,47.35898],[-70.028809,47.358598],[-70.029622,47.357962],[-70.030089,47.357589],[-70.030567,47.357224],[-70.030986,47.356909],[-70.031334,47.356671],[-70.03157400000001,47.356484],[-70.03178800000001,47.356298],[-70.032123,47.356035],[-70.032398,47.355814],[-70.032673,47.355586],[-70.032971,47.35534],[-70.033174,47.355145],[-70.033473,47.354933],[-70.033675,47.35473],[-70.03452299999999,47.354026],[-70.035133,47.353534],[-70.03555,47.35317],[-70.036148,47.352712],[-70.03671,47.352254],[-70.03752299999999,47.351609],[-70.038049,47.35121],[-70.038538,47.35077],[-70.03878899999999,47.350591],[-70.03929599999999,47.350136],[-70.03961099999999,47.349912],[-70.040345,47.349435],[-70.04433400000001,47.34687],[-70.045912,47.345849],[-70.047651,47.344722],[-70.048681,47.344043],[-70.049555,47.343478],[-70.050624,47.342815],[-70.05262500000001,47.341617],[-70.05268,47.341655],[-70.053307,47.342081],[-70.05359799999999,47.341908],[-70.055266,47.343043],[-70.055538,47.343209],[-70.061245,47.347037],[-70.068854,47.352256],[-70.06918,47.352481],[-70.06962300000001,47.352788],[-70.06968000000001,47.352827],[-70.069669,47.352948],[-70.06971,47.35297],[-70.06981,47.353025],[-70.070646,47.35354],[-70.072119,47.354496],[-70.075047,47.356506],[-70.07596100000001,47.357134],[-70.07729999999999,47.358052]]],"type":"Polygon"}
}